<?xml version="1.0" encoding="UTF-8"?><kml xmlns="http://www.opengis.net/kml/2.2"><Document><name>Tracker</name><Placemark><name>2024-10-21 00:00 - 2024-10-21 19:00</name><LineString><extrude>1</extrude><tessellate>1</tessellate><altitudeMode>absolute</altitudeMode><coordinates>18.951440,50.293837,0.000000 18.952123,50.293782,0.000000 18.952277,50.293743,0.000000 18.952277,50.293743,0.000000 18.952503,50.293755,0.000000 18.951698,50.294018,0.000000 18.951355,50.294115,0.000000 18.951343,50.294162,0.000000 18.951573,50.294055,0.000000 18.951573,50.294055,0.000000 18.951573,50.294055,0.000000 18.951573,50.294055,0.000000 18.951573,50.294055,0.000000 18.951573,50.294055,0.000000 18.951573,50.294055,0.000000 18.951573,50.294055,0.000000 18.951573,50.294055,0.000000 18.951573,50.294055,0.000000 18.951573,50.294055,0.000000 18.951913,50.293855,0.000000 18.951778,50.293995,0.000000 18.951775,50.294093,0.000000 18.951807,50.294155,0.000000 18.951807,50.294155,0.000000 18.951693,50.294425,0.000000 18.951805,50.294283,0.000000 18.952105,50.293802,0.000000 18.952105,50.293802,0.000000 18.952230,50.292907,0.000000 18.953208,50.292575,0.000000 18.953740,50.292412,0.000000 18.953810,50.292458,0.000000 18.953843,50.292527,0.000000 18.954097,50.293443,0.000000 18.954097,50.293443,0.000000 18.954345,50.293657,0.000000 18.954485,50.293668,0.000000 18.954652,50.293652,0.000000 18.954828,50.293607,0.000000 18.955967,50.293315,0.000000 18.957212,50.292970,0.000000 18.957592,50.292827,0.000000 18.958103,50.292437,0.000000 18.958392,50.292290,0.000000 18.959075,50.292097,0.000000 18.959075,50.292097,0.000000 18.961018,50.291617,0.000000 18.961675,50.291295,0.000000 18.963222,50.290270,0.000000 18.964852,50.289210,0.000000 18.966108,50.288387,0.000000 18.966393,50.288153,0.000000 18.967247,50.287597,0.000000 18.968720,50.286647,0.000000 18.970340,50.285605,0.000000 18.972150,50.284470,0.000000 18.974000,50.283323,0.000000 18.975800,50.282160,0.000000 18.977673,50.280957,0.000000 18.979430,50.279830,0.000000 18.981068,50.278760,0.000000 18.982633,50.277762,0.000000 18.983773,50.277020,0.000000 18.984488,50.276568,0.000000 18.985377,50.275990,0.000000 18.985377,50.275990,0.000000 18.986238,50.275567,0.000000 18.986988,50.275083,0.000000 18.986988,50.275083,0.000000 18.987578,50.274720,0.000000 18.988157,50.274332,0.000000 18.988878,50.273873,0.000000 18.989245,50.273657,0.000000 18.989633,50.273388,0.000000 18.990435,50.272865,0.000000 18.991242,50.272350,0.000000 18.991475,50.272187,0.000000 18.991475,50.272187,0.000000 18.992328,50.271655,0.000000 18.993738,50.270868,0.000000 18.994152,50.270783,0.000000 18.994572,50.270743,0.000000 18.996627,50.270647,0.000000 18.996627,50.270647,0.000000 18.998610,50.270208,0.000000 19.000383,50.269765,0.000000 19.002418,50.269253,0.000000 19.004683,50.268705,0.000000 19.007038,50.268202,0.000000 19.009288,50.267560,0.000000 19.011213,50.267040,0.000000 19.011373,50.266937,0.000000 19.011343,50.266802,0.000000 19.010528,50.265890,0.000000 19.009935,50.265183,0.000000 19.009160,50.264490,0.000000 19.008217,50.263512,0.000000 19.008005,50.263028,0.000000 19.007908,50.262207,0.000000 19.008038,50.261113,0.000000 19.008292,50.260240,0.000000 19.008838,50.259583,0.000000 19.009358,50.259198,0.000000 19.010013,50.258895,0.000000 19.011195,50.258555,0.000000 19.011195,50.258555,0.000000 19.012242,50.258322,0.000000 19.013695,50.258245,0.000000 19.013950,50.258220,0.000000 19.014422,50.258170,0.000000 19.015565,50.258222,0.000000 19.015837,50.258232,0.000000 19.017200,50.258085,0.000000 19.017200,50.258085,0.000000 19.017200,50.258085,0.000000 19.017200,50.258085,0.000000 19.019875,50.258295,0.000000 19.020680,50.257762,0.000000 19.021023,50.257657,0.000000 19.021102,50.257567,0.000000 19.021067,50.257370,0.000000 19.020818,50.256852,0.000000 19.020662,50.256730,0.000000 19.020447,50.256650,0.000000 19.020232,50.256643,0.000000 19.019590,50.256670,0.000000 19.019457,50.256647,0.000000 19.019320,50.256592,0.000000 19.019222,50.256495,0.000000 19.018667,50.255683,0.000000 19.018002,50.255062,0.000000 19.017532,50.254573,0.000000 19.017545,50.254520,0.000000 19.017678,50.254430,0.000000 19.017930,50.254368,0.000000 19.018707,50.254270,0.000000 19.019018,50.254352,0.000000 19.019090,50.254528,0.000000 19.019280,50.254973,0.000000 19.019190,50.255028,0.000000 19.019057,50.255080,0.000000 19.019057,50.255080,0.000000 19.018285,50.255297,0.000000 19.018160,50.255280,0.000000 19.018067,50.255225,0.000000 19.017840,50.254997,0.000000 19.017583,50.254752,0.000000 19.017455,50.254685,0.000000 19.017280,50.254687,0.000000 19.016147,50.254828,0.000000 19.016147,50.254828,0.000000 19.014863,50.254963,0.000000 19.013775,50.255028,0.000000 19.013467,50.255140,0.000000 19.012600,50.255577,0.000000 19.012280,50.255737,0.000000 19.012042,50.255855,0.000000 19.011828,50.255905,0.000000 19.011755,50.255868,0.000000 19.011188,50.255238,0.000000 19.010733,50.254930,0.000000 19.010543,50.254925,0.000000 19.009708,50.254853,0.000000 19.009143,50.254833,0.000000 19.007982,50.254807,0.000000 19.006793,50.254755,0.000000 19.005592,50.254658,0.000000 19.004275,50.254642,0.000000 19.002845,50.254565,0.000000 19.001482,50.254472,0.000000 19.001482,50.254472,0.000000 19.000685,50.254423,0.000000 19.000685,50.254423,0.000000 19.000877,50.254475,0.000000 19.001308,50.254413,0.000000 19.001630,50.254032,0.000000 19.001837,50.253838,0.000000 19.001925,50.253840,0.000000 19.002177,50.253912,0.000000 19.002855,50.253992,0.000000 19.002908,50.253900,0.000000 19.003082,50.253838,0.000000 19.003413,50.253692,0.000000 19.003370,50.253647,0.000000 19.003157,50.253508,0.000000 19.002568,50.253092,0.000000 19.001928,50.252473,0.000000 19.001407,50.251747,0.000000 19.000915,50.250990,0.000000 19.000518,50.250653,0.000000 18.999407,50.250647,0.000000 18.998385,50.250755,0.000000 18.996097,50.251148,0.000000 18.993680,50.251588,0.000000 18.991550,50.251972,0.000000 18.991550,50.251972,0.000000 18.989960,50.252243,0.000000 18.988062,50.252593,0.000000 18.986522,50.252915,0.000000 18.986320,50.253053,0.000000 18.986235,50.253240,0.000000 18.986102,50.253842,0.000000 18.985842,50.253978,0.000000 18.985520,50.254062,0.000000 18.983967,50.254375,0.000000 18.983865,50.254415,0.000000 18.983832,50.254448,0.000000 18.983832,50.254448,0.000000 18.983815,50.254502,0.000000 18.983850,50.254595,0.000000 18.984273,50.255597,0.000000 18.984542,50.256525,0.000000 18.984697,50.256958,0.000000 18.985093,50.258035,0.000000 18.985522,50.259342,0.000000 18.986138,50.260843,0.000000 18.986775,50.262117,0.000000 18.987268,50.263253,0.000000 18.987567,50.264012,0.000000 18.988377,50.265148,0.000000 18.988918,50.266043,0.000000 18.989380,50.266840,0.000000 18.989880,50.267673,0.000000 18.990033,50.268095,0.000000 18.989930,50.268233,0.000000 18.989710,50.268307,0.000000 18.989127,50.268500,0.000000 18.987477,50.269065,0.000000 18.987000,50.269102,0.000000 18.985207,50.269233,0.000000 18.983017,50.269663,0.000000 18.980813,50.270230,0.000000 18.978365,50.270893,0.000000 18.975923,50.271555,0.000000 18.975923,50.271555,0.000000 18.973513,50.272222,0.000000 18.971208,50.272855,0.000000 18.968832,50.273412,0.000000 18.966122,50.273737,0.000000 18.963505,50.274068,0.000000 18.962032,50.274528,0.000000 18.962032,50.274528,0.000000 18.960508,50.275255,0.000000 18.958083,50.276700,0.000000 18.955785,50.278145,0.000000 18.953723,50.279573,0.000000 18.951290,50.281325,0.000000 18.949555,50.282145,0.000000 18.946008,50.283388,0.000000 18.942788,50.284622,0.000000 18.939710,50.285950,0.000000 18.936562,50.287163,0.000000 18.934768,50.288067,0.000000 18.933163,50.289185,0.000000 18.930968,50.291177,0.000000 18.928440,50.292695,0.000000 18.925772,50.294097,0.000000 18.922812,50.295218,0.000000 18.919707,50.296020,0.000000 18.916425,50.296532,0.000000 18.913088,50.296762,0.000000 18.909657,50.296948,0.000000 18.907680,50.296802,0.000000 18.904590,50.296230,0.000000 18.901482,50.295898,0.000000 18.900265,50.295897,0.000000 18.899647,50.295910,0.000000 18.896393,50.296082,0.000000 18.893275,50.296420,0.000000 18.893275,50.296420,0.000000 18.890105,50.296772,0.000000 18.887098,50.297185,0.000000 18.886100,50.297538,0.000000 18.885248,50.298028,0.000000 18.884618,50.298580,0.000000 18.884223,50.299135,0.000000 18.884085,50.299582,0.000000 18.884030,50.299900,0.000000 18.883868,50.300163,0.000000 18.883612,50.301153,0.000000 18.883667,50.301257,0.000000 18.883667,50.301257,0.000000 18.883822,50.301312,0.000000 18.884507,50.301442,0.000000 18.884698,50.301533,0.000000 18.884825,50.301633,0.000000 18.885268,50.302155,0.000000 18.885633,50.302957,0.000000 18.886115,50.303963,0.000000 18.886417,50.304613,0.000000 18.886412,50.304765,0.000000 18.886348,50.304902,0.000000 18.886195,50.305013,0.000000 18.885962,50.305078,0.000000 18.885697,50.305087,0.000000 18.885432,50.305035,0.000000 18.885170,50.304928,0.000000 18.884417,50.304668,0.000000 18.884203,50.304660,0.000000 18.884037,50.304695,0.000000 18.883927,50.304760,0.000000 18.883860,50.304867,0.000000 18.883843,50.305007,0.000000 18.884025,50.305652,0.000000 18.884440,50.306852,0.000000 18.884838,50.307987,0.000000 18.885237,50.309138,0.000000 18.885588,50.310165,0.000000 18.885945,50.311177,0.000000 18.886253,50.312100,0.000000 18.886433,50.312653,0.000000 18.886480,50.312805,0.000000 18.886788,50.313698,0.000000 18.887160,50.314722,0.000000 18.887565,50.315687,0.000000 18.887977,50.316873,0.000000 18.887977,50.316873,0.000000 18.888450,50.318203,0.000000 18.888907,50.319558,0.000000 18.889428,50.321010,0.000000 18.890215,50.322508,0.000000 18.891085,50.323947,0.000000 18.891085,50.323947,0.000000 18.891930,50.325362,0.000000 18.892727,50.326662,0.000000 18.893632,50.327887,0.000000 18.894578,50.328940,0.000000 18.894682,50.329167,0.000000 18.894743,50.329627,0.000000 18.894507,50.330320,0.000000 18.894050,50.331490,0.000000 18.893890,50.332022,0.000000 18.893837,50.332080,0.000000 18.893555,50.332315,0.000000 18.893477,50.332398,0.000000 18.893327,50.332422,0.000000 18.893105,50.332413,0.000000 18.891778,50.332355,0.000000 18.890685,50.332490,0.000000 18.890368,50.332598,0.000000 18.889577,50.333038,0.000000 18.889402,50.333205,0.000000 18.889225,50.333480,0.000000 18.889185,50.333725,0.000000 18.889008,50.334457,0.000000 18.888855,50.334592,0.000000 18.888480,50.334800,0.000000 18.887548,50.335190,0.000000 18.887150,50.335407,0.000000 18.886975,50.335552,0.000000 18.886808,50.335793,0.000000 18.886740,50.335950,0.000000 18.886533,50.336993,0.000000 18.886510,50.337542,0.000000 18.886487,50.337680,0.000000 18.886425,50.337715,0.000000 18.886198,50.337735,0.000000 18.884932,50.337837,0.000000 18.884932,50.337837,0.000000 18.883212,50.338100,0.000000 18.881403,50.338332,0.000000 18.879443,50.338607,0.000000 18.877520,50.338837,0.000000 18.876095,50.339023,0.000000 18.876095,50.339023,0.000000 18.874962,50.339140,0.000000 18.873852,50.339243,0.000000 18.873278,50.339392,0.000000 18.871868,50.339812,0.000000 18.870707,50.340205,0.000000 18.870565,50.340277,0.000000 18.870583,50.340325,0.000000 18.871258,50.341108,0.000000 18.872050,50.342113,0.000000 18.872923,50.343242,0.000000 18.873900,50.344380,0.000000 18.874893,50.345498,0.000000 18.875690,50.346497,0.000000 18.876522,50.347475,0.000000 18.876923,50.348030,0.000000 18.876993,50.348438,0.000000 18.876840,50.349662,0.000000 18.876730,50.350778,0.000000 18.876567,50.351690,0.000000 18.876567,50.351690,0.000000 18.876450,50.352892,0.000000 18.876310,50.352968,0.000000 18.876085,50.352998,0.000000 18.874192,50.353222,0.000000 18.872410,50.353403,0.000000 18.872410,50.353403,0.000000 18.870682,50.353603,0.000000 18.868827,50.353788,0.000000 18.867520,50.353920,0.000000 18.866383,50.354095,0.000000 18.864868,50.354495,0.000000 18.863385,50.355037,0.000000 18.861773,50.355603,0.000000 18.860375,50.356010,0.000000 18.859110,50.356245,0.000000 18.857595,50.356572,0.000000 18.856863,50.356752,0.000000 18.856712,50.356707,0.000000 18.856557,50.356588,0.000000 18.856372,50.356472,0.000000 18.855867,50.356278,0.000000 18.854363,50.355805,0.000000 18.852655,50.355415,0.000000 18.850513,50.354990,0.000000 18.848287,50.354538,0.000000 18.846213,50.354095,0.000000 18.844263,50.353733,0.000000 18.842510,50.353348,0.000000 18.841677,50.353200,0.000000 18.841485,50.353262,0.000000 18.841373,50.353362,0.000000 18.841220,50.353663,0.000000 18.841220,50.353663,0.000000 18.840768,50.354667,0.000000 18.840295,50.355682,0.000000 18.840218,50.355807,0.000000 18.840110,50.355860,0.000000 18.839990,50.355852,0.000000 18.839297,50.355803,0.000000 18.838795,50.355827,0.000000 18.838475,50.355905,0.000000 18.838328,50.355962,0.000000 18.838188,50.356012,0.000000 18.838042,50.356058,0.000000 18.837917,50.356120,0.000000 18.837917,50.356120,0.000000 18.837690,50.356238,0.000000 18.837690,50.356238,0.000000 18.837690,50.356238,0.000000 18.837690,50.356238,0.000000 18.837690,50.356238,0.000000 18.837690,50.356238,0.000000 18.837690,50.356238,0.000000 18.837690,50.356238,0.000000 18.837690,50.356238,0.000000 18.837690,50.356238,0.000000 18.837690,50.356238,0.000000 18.837690,50.356238,0.000000 18.837690,50.356238,0.000000 18.837690,50.356238,0.000000 18.837690,50.356238,0.000000 18.837690,50.356238,0.000000 18.837690,50.356238,0.000000 18.837690,50.356238,0.000000 18.837690,50.356238,0.000000 18.837690,50.356238,0.000000 18.837690,50.356238,0.000000 18.837690,50.356238,0.000000 18.837690,50.356238,0.000000 18.837690,50.356238,0.000000 18.837690,50.356238,0.000000 18.837690,50.356238,0.000000 18.837690,50.356238,0.000000 18.837690,50.356238,0.000000 18.837690,50.356238,0.000000 18.837690,50.356238,0.000000 18.837690,50.356238,0.000000 18.837690,50.356238,0.000000 18.837690,50.356238,0.000000 18.837690,50.356238,0.000000 18.837690,50.356238,0.000000 18.837690,50.356238,0.000000 18.837690,50.356238,0.000000 18.837690,50.356238,0.000000 18.837690,50.356238,0.000000 18.837690,50.356238,0.000000 18.837690,50.356238,0.000000 18.837690,50.356238,0.000000 18.837690,50.356238,0.000000 18.837690,50.356238,0.000000 18.837690,50.356238,0.000000 18.837690,50.356238,0.000000 18.837690,50.356238,0.000000 18.837690,50.356238,0.000000 18.837690,50.356238,0.000000 18.837690,50.356238,0.000000 18.837690,50.356238,0.000000 18.837690,50.356238,0.000000 18.837690,50.356238,0.000000 18.837690,50.356238,0.000000 18.837690,50.356238,0.000000 18.837690,50.356238,0.000000 18.837690,50.356238,0.000000 18.837690,50.356238,0.000000 18.837690,50.356238,0.000000 18.837690,50.356238,0.000000 18.837690,50.356238,0.000000 18.837690,50.356238,0.000000 18.837690,50.356238,0.000000 18.837690,50.356238,0.000000 18.837690,50.356238,0.000000 18.837690,50.356238,0.000000 18.837690,50.356238,0.000000 18.837690,50.356238,0.000000 18.837690,50.356238,0.000000 18.837690,50.356238,0.000000 18.837690,50.356238,0.000000 18.837690,50.356238,0.000000 18.837690,50.356238,0.000000 18.837690,50.356238,0.000000 18.837690,50.356238,0.000000 18.837690,50.356238,0.000000 18.837690,50.356238,0.000000 18.837690,50.356238,0.000000 18.837690,50.356238,0.000000 18.837690,50.356238,0.000000 18.837690,50.356238,0.000000 18.837690,50.356238,0.000000 18.837690,50.356238,0.000000 18.837690,50.356238,0.000000 18.837690,50.356238,0.000000 18.837690,50.356238,0.000000 18.837690,50.356238,0.000000 18.837690,50.356238,0.000000 18.837690,50.356238,0.000000 18.837690,50.356238,0.000000 18.837690,50.356238,0.000000 18.837690,50.356238,0.000000 18.837690,50.356238,0.000000 18.837690,50.356238,0.000000 18.837690,50.356238,0.000000 18.837690,50.356238,0.000000 18.837690,50.356238,0.000000 18.837690,50.356238,0.000000 18.837690,50.356238,0.000000 18.837690,50.356238,0.000000 18.837690,50.356238,0.000000 18.837690,50.356238,0.000000 18.837690,50.356238,0.000000 18.837690,50.356238,0.000000 18.837690,50.356238,0.000000 18.837690,50.356238,0.000000 18.837690,50.356238,0.000000 18.837690,50.356238,0.000000 18.837690,50.356238,0.000000 18.837690,50.356238,0.000000 18.837690,50.356238,0.000000 18.837690,50.356238,0.000000 18.837690,50.356238,0.000000 18.837690,50.356238,0.000000 18.837690,50.356238,0.000000 18.837690,50.356238,0.000000 18.837690,50.356238,0.000000 18.837690,50.356238,0.000000 18.837690,50.356238,0.000000 18.837690,50.356238,0.000000 18.837690,50.356238,0.000000 18.837690,50.356238,0.000000 18.837690,50.356238,0.000000 18.837690,50.356238,0.000000 18.837690,50.356238,0.000000 18.837690,50.356238,0.000000 18.837690,50.356238,0.000000 18.837690,50.356238,0.000000 18.837690,50.356238,0.000000 18.837690,50.356238,0.000000 18.837690,50.356238,0.000000 18.837690,50.356238,0.000000 18.837690,50.356238,0.000000 18.837690,50.356238,0.000000 18.837690,50.356238,0.000000 18.837690,50.356238,0.000000 18.837690,50.356238,0.000000 18.837690,50.356238,0.000000 18.837690,50.356238,0.000000 18.837690,50.356238,0.000000 18.837690,50.356238,0.000000 18.837690,50.356238,0.000000 18.837690,50.356238,0.000000 18.837690,50.356238,0.000000 18.837690,50.356238,0.000000 18.837690,50.356238,0.000000 18.837690,50.356238,0.000000 18.837690,50.356238,0.000000 18.837690,50.356238,0.000000 18.837690,50.356238,0.000000 18.837690,50.356238,0.000000 18.837690,50.356238,0.000000 18.837690,50.356238,0.000000 18.837690,50.356238,0.000000 18.837690,50.356238,0.000000 18.837690,50.356238,0.000000 18.837690,50.356238,0.000000 18.837690,50.356238,0.000000 18.837690,50.356238,0.000000 18.837690,50.356238,0.000000 18.837690,50.356238,0.000000 18.837690,50.356238,0.000000 18.837690,50.356238,0.000000 18.837690,50.356238,0.000000 18.837690,50.356238,0.000000 18.837690,50.356238,0.000000 18.837690,50.356238,0.000000 18.837690,50.356238,0.000000 18.837690,50.356238,0.000000 18.837690,50.356238,0.000000 18.837690,50.356238,0.000000 18.837690,50.356238,0.000000 18.837690,50.356238,0.000000 18.837690,50.356238,0.000000 18.837690,50.356238,0.000000 18.837690,50.356238,0.000000 18.837690,50.356238,0.000000 18.837690,50.356238,0.000000 18.837690,50.356238,0.000000 18.837690,50.356238,0.000000 18.837690,50.356238,0.000000 18.837690,50.356238,0.000000 18.837690,50.356238,0.000000 18.837690,50.356238,0.000000 18.837690,50.356238,0.000000 18.837690,50.356238,0.000000 18.837690,50.356238,0.000000 18.837690,50.356238,0.000000 18.837690,50.356238,0.000000 18.837690,50.356238,0.000000 18.837690,50.356238,0.000000 18.837690,50.356238,0.000000 18.837690,50.356238,0.000000 18.837690,50.356238,0.000000 18.837690,50.356238,0.000000 18.837690,50.356238,0.000000 18.837690,50.356238,0.000000 18.837690,50.356238,0.000000 18.837690,50.356238,0.000000 18.837690,50.356238,0.000000 18.837690,50.356238,0.000000 18.837690,50.356238,0.000000 18.837690,50.356238,0.000000 18.837690,50.356238,0.000000 18.837690,50.356238,0.000000 18.837690,50.356238,0.000000 18.837690,50.356238,0.000000 18.837690,50.356238,0.000000 18.837690,50.356238,0.000000 18.837690,50.356238,0.000000 18.837690,50.356238,0.000000 18.837690,50.356238,0.000000 18.837690,50.356238,0.000000 18.837690,50.356238,0.000000 18.837690,50.356238,0.000000 18.837690,50.356238,0.000000 18.837690,50.356238,0.000000 18.837690,50.356238,0.000000 18.837690,50.356238,0.000000 18.837690,50.356238,0.000000 18.837690,50.356238,0.000000 18.837690,50.356238,0.000000 18.837690,50.356238,0.000000 18.837690,50.356238,0.000000 18.837690,50.356238,0.000000 18.837690,50.356238,0.000000 18.837690,50.356238,0.000000 18.837690,50.356238,0.000000 18.837690,50.356238,0.000000 18.837690,50.356238,0.000000 18.837690,50.356238,0.000000 18.837690,50.356238,0.000000 18.837690,50.356238,0.000000 18.837690,50.356238,0.000000 18.837690,50.356238,0.000000 18.837690,50.356238,0.000000 18.837690,50.356238,0.000000 18.837690,50.356238,0.000000 18.837690,50.356238,0.000000 18.837690,50.356238,0.000000 18.837690,50.356238,0.000000 18.837690,50.356238,0.000000 18.837690,50.356238,0.000000 18.837690,50.356238,0.000000 18.837690,50.356238,0.000000 18.837690,50.356238,0.000000 18.837690,50.356238,0.000000 18.837690,50.356238,0.000000 18.837690,50.356238,0.000000 18.837690,50.356238,0.000000 18.837690,50.356238,0.000000 18.837690,50.356238,0.000000 18.837690,50.356238,0.000000 18.837690,50.356238,0.000000 18.837690,50.356238,0.000000 18.837690,50.356238,0.000000 18.837690,50.356238,0.000000 18.837690,50.356238,0.000000 18.837690,50.356238,0.000000 18.837690,50.356238,0.000000 18.837690,50.356238,0.000000 18.837690,50.356238,0.000000 18.837690,50.356238,0.000000 18.837690,50.356238,0.000000 18.837690,50.356238,0.000000 18.837690,50.356238,0.000000 18.837690,50.356238,0.000000 18.837690,50.356238,0.000000 18.837690,50.356238,0.000000 18.837690,50.356238,0.000000 18.837690,50.356238,0.000000 18.837690,50.356238,0.000000 18.837690,50.356238,0.000000 18.837690,50.356238,0.000000 18.837690,50.356238,0.000000 18.837690,50.356238,0.000000 18.837690,50.356238,0.000000 18.837690,50.356238,0.000000 18.837690,50.356238,0.000000 18.837690,50.356238,0.000000 18.837690,50.356238,0.000000 18.837690,50.356238,0.000000 18.837690,50.356238,0.000000 18.837690,50.356238,0.000000 18.837690,50.356238,0.000000 18.837690,50.356238,0.000000 18.837690,50.356238,0.000000 18.837690,50.356238,0.000000 18.837690,50.356238,0.000000 18.837690,50.356238,0.000000 18.837690,50.356238,0.000000 18.837690,50.356238,0.000000 18.837690,50.356238,0.000000 18.837690,50.356238,0.000000 18.837690,50.356238,0.000000 18.837690,50.356238,0.000000 18.837690,50.356238,0.000000 18.837690,50.356238,0.000000 18.837690,50.356238,0.000000 18.837690,50.356238,0.000000 18.837690,50.356238,0.000000 18.837690,50.356238,0.000000 18.837690,50.356238,0.000000 18.837690,50.356238,0.000000 18.837690,50.356238,0.000000 18.837690,50.356238,0.000000 18.837690,50.356238,0.000000 18.837690,50.356238,0.000000 18.837690,50.356238,0.000000 18.837690,50.356238,0.000000 18.837690,50.356238,0.000000 18.837690,50.356238,0.000000 18.837690,50.356238,0.000000 18.837690,50.356238,0.000000 18.837690,50.356238,0.000000 18.837690,50.356238,0.000000 18.837690,50.356238,0.000000 18.837690,50.356238,0.000000 18.837690,50.356238,0.000000 18.837690,50.356238,0.000000 18.837690,50.356238,0.000000 18.837690,50.356238,0.000000 18.837690,50.356238,0.000000 18.837690,50.356238,0.000000 18.837690,50.356238,0.000000 18.837690,50.356238,0.000000 18.837690,50.356238,0.000000 18.837690,50.356238,0.000000 18.837690,50.356238,0.000000 18.837690,50.356238,0.000000 18.837690,50.356238,0.000000 18.837690,50.356238,0.000000 18.837690,50.356238,0.000000 18.837690,50.356238,0.000000 18.837690,50.356238,0.000000 18.837690,50.356238,0.000000 18.837690,50.356238,0.000000 18.837690,50.356238,0.000000 18.837690,50.356238,0.000000 18.837690,50.356238,0.000000 18.837690,50.356238,0.000000 18.837690,50.356238,0.000000 18.837690,50.356238,0.000000 18.837690,50.356238,0.000000 18.837690,50.356238,0.000000 18.837690,50.356238,0.000000 18.837690,50.356238,0.000000 18.837690,50.356238,0.000000 18.837690,50.356238,0.000000 18.837690,50.356238,0.000000 18.837690,50.356238,0.000000 18.837690,50.356238,0.000000 18.837690,50.356238,0.000000 18.837690,50.356238,0.000000 18.837690,50.356238,0.000000 18.837690,50.356238,0.000000 18.837690,50.356238,0.000000 18.837690,50.356238,0.000000 18.837690,50.356238,0.000000 18.837690,50.356238,0.000000 18.837690,50.356238,0.000000 18.837690,50.356238,0.000000 18.837690,50.356238,0.000000 18.837690,50.356238,0.000000 18.837690,50.356238,0.000000 18.837690,50.356238,0.000000 18.837690,50.356238,0.000000 18.837690,50.356238,0.000000 18.837690,50.356238,0.000000 18.837690,50.356238,0.000000 18.837690,50.356238,0.000000 18.837690,50.356238,0.000000 18.837690,50.356238,0.000000 18.837690,50.356238,0.000000 18.837690,50.356238,0.000000 18.837690,50.356238,0.000000 18.837690,50.356238,0.000000 18.837690,50.356238,0.000000 18.837690,50.356238,0.000000 18.837690,50.356238,0.000000 18.837690,50.356238,0.000000 18.837690,50.356238,0.000000 18.837690,50.356238,0.000000 18.837690,50.356238,0.000000 18.837690,50.356238,0.000000 18.837690,50.356238,0.000000 18.837690,50.356238,0.000000 18.837690,50.356238,0.000000 18.837690,50.356238,0.000000 18.837690,50.356238,0.000000 18.837690,50.356238,0.000000 18.837690,50.356238,0.000000 18.837690,50.356238,0.000000 18.837690,50.356238,0.000000 18.837690,50.356238,0.000000 18.837690,50.356238,0.000000 18.837690,50.356238,0.000000 18.837690,50.356238,0.000000 18.837690,50.356238,0.000000 18.837690,50.356238,0.000000 18.837690,50.356238,0.000000 18.837690,50.356238,0.000000 18.837690,50.356238,0.000000 18.837690,50.356238,0.000000 18.837690,50.356238,0.000000 18.837690,50.356238,0.000000 18.837690,50.356238,0.000000 18.837690,50.356238,0.000000 18.837690,50.356238,0.000000 18.837690,50.356238,0.000000 18.837690,50.356238,0.000000 18.837690,50.356238,0.000000 18.837690,50.356238,0.000000 18.837690,50.356238,0.000000 18.837690,50.356238,0.000000 18.837690,50.356238,0.000000 18.837690,50.356238,0.000000 18.837690,50.356238,0.000000 18.837690,50.356238,0.000000 18.837690,50.356238,0.000000 18.837690,50.356238,0.000000 18.837690,50.356238,0.000000 18.837690,50.356238,0.000000 18.837690,50.356238,0.000000 18.837690,50.356238,0.000000 18.837690,50.356238,0.000000 18.837690,50.356238,0.000000 18.837690,50.356238,0.000000 18.837690,50.356238,0.000000 18.837690,50.356238,0.000000 18.837690,50.356238,0.000000 18.837690,50.356238,0.000000 18.837690,50.356238,0.000000 18.837690,50.356238,0.000000 18.837690,50.356238,0.000000 18.837690,50.356238,0.000000 18.837690,50.356238,0.000000 18.837690,50.356238,0.000000 18.837690,50.356238,0.000000 18.837690,50.356238,0.000000 18.837690,50.356238,0.000000 18.837690,50.356238,0.000000 18.837690,50.356238,0.000000 18.837690,50.356238,0.000000 18.837690,50.356238,0.000000 18.837690,50.356238,0.000000 18.837690,50.356238,0.000000 18.837690,50.356238,0.000000 18.837690,50.356238,0.000000 18.837690,50.356238,0.000000 18.837690,50.356238,0.000000 18.837690,50.356238,0.000000 18.837690,50.356238,0.000000 18.837690,50.356238,0.000000 18.837690,50.356238,0.000000 18.837690,50.356238,0.000000 18.837690,50.356238,0.000000 18.837690,50.356238,0.000000 18.837690,50.356238,0.000000 18.837690,50.356238,0.000000 18.837690,50.356238,0.000000 18.837690,50.356238,0.000000 18.837690,50.356238,0.000000 18.837690,50.356238,0.000000 18.837690,50.356238,0.000000 18.837690,50.356238,0.000000 18.837690,50.356238,0.000000 18.837690,50.356238,0.000000 18.837690,50.356238,0.000000 18.837690,50.356238,0.000000 18.837690,50.356238,0.000000 18.837690,50.356238,0.000000 18.837690,50.356238,0.000000 18.837690,50.356238,0.000000 18.837690,50.356238,0.000000 18.837690,50.356238,0.000000 18.837690,50.356238,0.000000 18.837690,50.356238,0.000000 18.837690,50.356238,0.000000 18.837690,50.356238,0.000000 18.837690,50.356238,0.000000 18.837690,50.356238,0.000000 18.837690,50.356238,0.000000 18.837690,50.356238,0.000000 18.837690,50.356238,0.000000 18.837690,50.356238,0.000000 18.837690,50.356238,0.000000 18.837690,50.356238,0.000000 18.837690,50.356238,0.000000 18.837690,50.356238,0.000000 18.837690,50.356238,0.000000 18.837690,50.356238,0.000000 18.837690,50.356238,0.000000 18.837690,50.356238,0.000000 18.837690,50.356238,0.000000 18.837690,50.356238,0.000000 18.837690,50.356238,0.000000 18.837690,50.356238,0.000000 18.837690,50.356238,0.000000 18.837690,50.356238,0.000000 18.837690,50.356238,0.000000 18.837690,50.356238,0.000000 18.837690,50.356238,0.000000 18.837690,50.356238,0.000000 18.837690,50.356238,0.000000 18.837690,50.356238,0.000000 18.837690,50.356238,0.000000 18.837690,50.356238,0.000000 18.837690,50.356238,0.000000 18.837690,50.356238,0.000000 18.837690,50.356238,0.000000 18.837690,50.356238,0.000000 18.837690,50.356238,0.000000 18.837690,50.356238,0.000000 18.837690,50.356238,0.000000 18.837690,50.356238,0.000000 18.837690,50.356238,0.000000 18.837690,50.356238,0.000000 18.837690,50.356238,0.000000 18.837690,50.356238,0.000000 18.837690,50.356238,0.000000 18.837690,50.356238,0.000000 18.837690,50.356238,0.000000 18.837690,50.356238,0.000000 18.837690,50.356238,0.000000 18.837690,50.356238,0.000000 18.837690,50.356238,0.000000 18.837690,50.356238,0.000000 18.837690,50.356238,0.000000 18.837690,50.356238,0.000000 18.837690,50.356238,0.000000 18.837690,50.356238,0.000000 18.837690,50.356238,0.000000 18.837690,50.356238,0.000000 18.837690,50.356238,0.000000 18.837690,50.356238,0.000000 18.837690,50.356238,0.000000 18.837690,50.356238,0.000000 18.837690,50.356238,0.000000 18.837690,50.356238,0.000000 18.837690,50.356238,0.000000 18.837690,50.356238,0.000000 18.837690,50.356238,0.000000 18.837690,50.356238,0.000000 18.837690,50.356238,0.000000 18.837690,50.356238,0.000000 18.837690,50.356238,0.000000 18.837690,50.356238,0.000000 18.837690,50.356238,0.000000 18.837690,50.356238,0.000000 18.837690,50.356238,0.000000 18.837690,50.356238,0.000000 18.837690,50.356238,0.000000 18.837690,50.356238,0.000000 18.837690,50.356238,0.000000 18.837690,50.356238,0.000000 18.837690,50.356238,0.000000 18.837690,50.356238,0.000000 18.837690,50.356238,0.000000 18.837690,50.356238,0.000000 18.837690,50.356238,0.000000 18.837690,50.356238,0.000000 18.837690,50.356238,0.000000 18.837690,50.356238,0.000000 18.837690,50.356238,0.000000 18.837690,50.356238,0.000000 18.837690,50.356238,0.000000 18.837690,50.356238,0.000000 18.837690,50.356238,0.000000 18.837690,50.356238,0.000000 18.837690,50.356238,0.000000 18.837690,50.356238,0.000000 18.837690,50.356238,0.000000 18.837690,50.356238,0.000000 18.837690,50.356238,0.000000 18.837690,50.356238,0.000000 18.837690,50.356238,0.000000 18.837690,50.356238,0.000000 18.837690,50.356238,0.000000 18.837690,50.356238,0.000000 18.837690,50.356238,0.000000 18.837690,50.356238,0.000000 18.837690,50.356238,0.000000 18.837690,50.356238,0.000000 18.837690,50.356238,0.000000 18.837690,50.356238,0.000000 18.837690,50.356238,0.000000 18.837690,50.356238,0.000000 18.837690,50.356238,0.000000</coordinates></LineString></Placemark></Document></kml>