<?xml version="1.0" encoding="UTF-8"?><kml xmlns="http://www.opengis.net/kml/2.2"><Document><name>Tracker</name><Placemark><name>2024-10-18 18:00 - 2024-10-18 22:17</name><LineString><extrude>1</extrude><tessellate>1</tessellate><altitudeMode>absolute</altitudeMode><coordinates>18.837305,50.356562,0.000000 18.837058,50.356863,0.000000 18.837093,50.356910,0.000000 18.837203,50.356945,0.000000 18.838158,50.357190,0.000000 18.839175,50.357425,0.000000 18.839402,50.357422,0.000000 18.839457,50.357345,0.000000 18.839930,50.356357,0.000000 18.840438,50.355297,0.000000 18.840963,50.354123,0.000000 18.841402,50.353247,0.000000 18.841497,50.353175,0.000000 18.841660,50.353165,0.000000 18.842175,50.353265,0.000000 18.843890,50.353575,0.000000 18.845600,50.353922,0.000000 18.846678,50.354103,0.000000 18.846790,50.354075,0.000000 18.846825,50.353990,0.000000 18.846810,50.353785,0.000000 18.846797,50.352585,0.000000 18.846843,50.351313,0.000000 18.846902,50.350177,0.000000 18.846918,50.349848,0.000000 18.847043,50.349818,0.000000 18.848468,50.349575,0.000000 18.848653,50.349513,0.000000 18.848823,50.349362,0.000000 18.848888,50.349080,0.000000 18.848833,50.348908,0.000000 18.848682,50.348725,0.000000 18.847773,50.348005,0.000000 18.846073,50.346687,0.000000 18.844958,50.345337,0.000000 18.844158,50.343665,0.000000 18.843505,50.342145,0.000000 18.842723,50.340950,0.000000 18.842723,50.340950,0.000000 18.841337,50.339622,0.000000 18.839355,50.338348,0.000000 18.839355,50.338348,0.000000 18.837653,50.337642,0.000000 18.834473,50.336713,0.000000 18.831370,50.335792,0.000000 18.829005,50.335052,0.000000 18.827028,50.334090,0.000000 18.825168,50.333088,0.000000 18.823088,50.332215,0.000000 18.820672,50.331628,0.000000 18.818392,50.331065,0.000000 18.816090,50.330535,0.000000 18.813698,50.330095,0.000000 18.811410,50.329675,0.000000 18.809210,50.329272,0.000000 18.806873,50.328847,0.000000 18.804483,50.328407,0.000000 18.802118,50.327962,0.000000 18.799773,50.327548,0.000000 18.797408,50.327118,0.000000 18.795152,50.326772,0.000000 18.792775,50.326420,0.000000 18.790393,50.326048,0.000000 18.788097,50.325503,0.000000 18.785822,50.324935,0.000000 18.783662,50.324233,0.000000 18.781522,50.323318,0.000000 18.779457,50.322467,0.000000 18.777163,50.321833,0.000000 18.774812,50.321262,0.000000 18.772515,50.320673,0.000000 18.772515,50.320673,0.000000 18.770147,50.320087,0.000000 18.770147,50.320087,0.000000 18.767732,50.319488,0.000000 18.767732,50.319488,0.000000 18.765348,50.318890,0.000000 18.765348,50.318890,0.000000 18.763050,50.318295,0.000000 18.763050,50.318295,0.000000 18.760848,50.317650,0.000000 18.760848,50.317650,0.000000 18.758663,50.317033,0.000000 18.758663,50.317033,0.000000 18.756360,50.316460,0.000000 18.756360,50.316460,0.000000 18.753975,50.315858,0.000000 18.753975,50.315858,0.000000 18.751628,50.315268,0.000000 18.751628,50.315268,0.000000 18.749312,50.314683,0.000000 18.749312,50.314683,0.000000 18.746997,50.314098,0.000000 18.746997,50.314098,0.000000 18.744645,50.313498,0.000000 18.744645,50.313498,0.000000 18.742253,50.312855,0.000000 18.742253,50.312855,0.000000 18.739893,50.312192,0.000000 18.739893,50.312192,0.000000 18.737493,50.311575,0.000000 18.737493,50.311575,0.000000 18.734885,50.310918,0.000000 18.734885,50.310918,0.000000 18.732740,50.310267,0.000000 18.732740,50.310267,0.000000 18.731437,50.309555,0.000000 18.731437,50.309555,0.000000 18.729533,50.308297,0.000000 18.729533,50.308297,0.000000 18.728045,50.307563,0.000000 18.728045,50.307563,0.000000 18.726980,50.307228,0.000000 18.726980,50.307228,0.000000 18.725107,50.306967,0.000000 18.725107,50.306967,0.000000 18.723832,50.307012,0.000000 18.723832,50.307012,0.000000 18.722235,50.307307,0.000000 18.722235,50.307307,0.000000 18.721827,50.307477,0.000000 18.721827,50.307477,0.000000 18.721532,50.307703,0.000000 18.721532,50.307703,0.000000 18.721343,50.307958,0.000000 18.721343,50.307958,0.000000 18.721272,50.308233,0.000000 18.721272,50.308233,0.000000 18.721320,50.308497,0.000000 18.721320,50.308497,0.000000 18.721467,50.308738,0.000000 18.721467,50.308738,0.000000 18.721947,50.309208,0.000000 18.721947,50.309208,0.000000 18.723122,50.310175,0.000000 18.723122,50.310175,0.000000 18.723502,50.310360,0.000000 18.723502,50.310360,0.000000 18.723935,50.310488,0.000000 18.723935,50.310488,0.000000 18.724873,50.310622,0.000000 18.724873,50.310622,0.000000 18.725352,50.310603,0.000000 18.725352,50.310603,0.000000 18.725803,50.310493,0.000000 18.725803,50.310493,0.000000 18.726187,50.310322,0.000000 18.726187,50.310322,0.000000 18.726487,50.310085,0.000000 18.726487,50.310085,0.000000 18.726705,50.309783,0.000000 18.726705,50.309783,0.000000 18.727667,50.307913,0.000000 18.727667,50.307913,0.000000 18.728270,50.305872,0.000000 18.728270,50.305872,0.000000 18.728250,50.303678,0.000000 18.728250,50.303678,0.000000 18.727598,50.301860,0.000000 18.727598,50.301860,0.000000 18.726375,50.300095,0.000000 18.726375,50.300095,0.000000 18.724640,50.298487,0.000000 18.724640,50.298487,0.000000 18.724640,50.298487,0.000000 18.720923,50.296275,0.000000 18.720923,50.296275,0.000000 18.720923,50.296275,0.000000 18.717297,50.294148,0.000000 18.715803,50.292673,0.000000 18.714863,50.291048,0.000000 18.714547,50.289948,0.000000 18.714582,50.288355,0.000000 18.715030,50.286950,0.000000 18.715030,50.286950,0.000000 18.716017,50.285490,0.000000 18.717185,50.284388,0.000000 18.717185,50.284388,0.000000 18.719262,50.283037,0.000000 18.719262,50.283037,0.000000 18.722175,50.281468,0.000000 18.722175,50.281468,0.000000 18.725165,50.279687,0.000000 18.727162,50.277882,0.000000 18.727162,50.277882,0.000000 18.728483,50.275912,0.000000 18.728483,50.275912,0.000000 18.729145,50.273848,0.000000 18.729178,50.271763,0.000000 18.729178,50.271763,0.000000 18.728607,50.269495,0.000000 18.728607,50.269495,0.000000 18.727462,50.267705,0.000000 18.727462,50.267705,0.000000 18.724687,50.264983,0.000000 18.724687,50.264983,0.000000 18.722102,50.262597,0.000000 18.722102,50.262597,0.000000 18.719807,50.260120,0.000000 18.719807,50.260120,0.000000 18.717825,50.257180,0.000000 18.717825,50.257180,0.000000 18.716385,50.253693,0.000000 18.715382,50.250567,0.000000 18.714193,50.247715,0.000000 18.712687,50.244935,0.000000 18.710717,50.242055,0.000000 18.708627,50.239423,0.000000 18.705990,50.236747,0.000000 18.703220,50.234242,0.000000 18.700638,50.231895,0.000000 18.700638,50.231895,0.000000 18.698225,50.229697,0.000000 18.696068,50.227672,0.000000 18.696068,50.227672,0.000000 18.694690,50.226182,0.000000 18.694690,50.226182,0.000000 18.694060,50.225750,0.000000 18.694060,50.225750,0.000000 18.693308,50.225508,0.000000 18.692477,50.225428,0.000000 18.692033,50.225458,0.000000 18.691187,50.225630,0.000000 18.689365,50.226050,0.000000 18.688860,50.226092,0.000000 18.687878,50.226003,0.000000 18.687008,50.225730,0.000000 18.686308,50.225318,0.000000 18.685808,50.224778,0.000000 18.685550,50.224160,0.000000 18.685332,50.222335,0.000000 18.685040,50.220317,0.000000 18.684833,50.218825,0.000000 18.684748,50.218652,0.000000 18.684668,50.218578,0.000000 18.684658,50.218485,0.000000 18.684778,50.218422,0.000000 18.684952,50.218437,0.000000 18.685063,50.218522,0.000000 18.685045,50.218642,0.000000 18.684978,50.218780,0.000000 18.685032,50.219267,0.000000 18.685337,50.221277,0.000000 18.685668,50.223590,0.000000 18.686028,50.224815,0.000000 18.686320,50.225165,0.000000 18.686708,50.225467,0.000000 18.687192,50.225720,0.000000 18.687743,50.225908,0.000000 18.688317,50.226017,0.000000 18.688902,50.226050,0.000000 18.689493,50.226020,0.000000 18.690670,50.225767,0.000000 18.693588,50.224917,0.000000 18.695627,50.224405,0.000000 18.696070,50.224435,0.000000 18.696442,50.224573,0.000000 18.696700,50.224795,0.000000 18.696823,50.225062,0.000000 18.696778,50.225352,0.000000 18.696595,50.225638,0.000000 18.696212,50.226272,0.000000 18.696130,50.226628,0.000000 18.696163,50.226995,0.000000 18.696320,50.227353,0.000000 18.696887,50.227998,0.000000 18.698708,50.229782,0.000000 18.700628,50.231588,0.000000 18.702767,50.233537,0.000000 18.705028,50.235597,0.000000 18.707642,50.238098,0.000000 18.709978,50.240667,0.000000 18.711933,50.243147,0.000000 18.713242,50.245208,0.000000 18.714353,50.247268,0.000000 18.715282,50.249295,0.000000 18.716125,50.251488,0.000000 18.716125,50.251488,0.000000 18.716125,50.251488,0.000000 18.716855,50.253567,0.000000 18.717557,50.255378,0.000000 18.718350,50.257005,0.000000 18.718845,50.257593,0.000000 18.719663,50.258093,0.000000 18.720585,50.258407,0.000000 18.721857,50.258618,0.000000 18.722603,50.258747,0.000000 18.724202,50.259125,0.000000 18.724870,50.259343,0.000000 18.725200,50.259557,0.000000 18.725458,50.259837,0.000000 18.726655,50.261573,0.000000 18.727397,50.262275,0.000000 18.727897,50.262503,0.000000 18.731397,50.263370,0.000000 18.735320,50.264303,0.000000 18.739345,50.265295,0.000000 18.743420,50.266268,0.000000 18.747358,50.267263,0.000000 18.751455,50.268280,0.000000 18.755597,50.269107,0.000000 18.759985,50.269492,0.000000 18.764410,50.269420,0.000000 18.768187,50.269003,0.000000 18.772047,50.268142,0.000000 18.776393,50.266632,0.000000 18.780340,50.264960,0.000000 18.784680,50.263283,0.000000 18.789243,50.262058,0.000000 18.794423,50.261258,0.000000 18.799900,50.260873,0.000000 18.805265,50.260535,0.000000 18.810748,50.260172,0.000000 18.816338,50.259817,0.000000 18.821733,50.259465,0.000000 18.821733,50.259465,0.000000 18.826992,50.259113,0.000000 18.826992,50.259113,0.000000 18.832217,50.258750,0.000000 18.837838,50.258107,0.000000 18.843842,50.257310,0.000000 18.849228,50.256590,0.000000 18.854535,50.255883,0.000000 18.859700,50.255168,0.000000 18.864802,50.254487,0.000000 18.869842,50.253818,0.000000 18.875280,50.253090,0.000000 18.880768,50.252270,0.000000 18.883528,50.251440,0.000000 18.885885,50.250290,0.000000 18.889617,50.248372,0.000000 18.892167,50.247625,0.000000 18.894840,50.247227,0.000000 18.897525,50.247162,0.000000 18.900833,50.247525,0.000000 18.905263,50.248310,0.000000 18.909763,50.249070,0.000000 18.914627,50.249868,0.000000 18.919492,50.250707,0.000000 18.924453,50.251508,0.000000 18.929148,50.252308,0.000000 18.934300,50.253162,0.000000 18.939275,50.253968,0.000000 18.944318,50.254572,0.000000 18.949267,50.254935,0.000000 18.954057,50.255273,0.000000 18.958485,50.255603,0.000000 18.962762,50.255897,0.000000 18.967018,50.255830,0.000000 18.971098,50.255285,0.000000 18.971098,50.255285,0.000000 18.971098,50.255285,0.000000 18.975210,50.254542,0.000000 18.979343,50.253808,0.000000 18.983453,50.253077,0.000000 18.988628,50.252155,0.000000 18.993227,50.251343,0.000000 18.997478,50.250552,0.000000 18.999595,50.249903,0.000000 19.002122,50.248700,0.000000 19.004062,50.247818,0.000000 19.005503,50.247465,0.000000 19.007737,50.247227,0.000000 19.011568,50.247013,0.000000 19.015900,50.246743,0.000000 19.020370,50.246423,0.000000 19.024717,50.246123,0.000000 19.028980,50.245853,0.000000 19.033212,50.245382,0.000000 19.036997,50.244645,0.000000 19.040983,50.243895,0.000000 19.045485,50.242985,0.000000 19.049333,50.242153,0.000000 19.052582,50.241483,0.000000 19.054482,50.240933,0.000000 19.056810,50.239908,0.000000 19.058838,50.238562,0.000000 19.059982,50.237440,0.000000 19.061240,50.235632,0.000000 19.062548,50.233932,0.000000 19.063975,50.232617,0.000000 19.066023,50.231357,0.000000 19.068475,50.230372,0.000000 19.071250,50.229512,0.000000 19.074577,50.228478,0.000000 19.074577,50.228478,0.000000 19.078020,50.227392,0.000000 19.078020,50.227392,0.000000 19.081360,50.226350,0.000000 19.084673,50.225305,0.000000 19.088058,50.224235,0.000000 19.090758,50.223373,0.000000 19.092902,50.222695,0.000000 19.095312,50.221923,0.000000 19.096238,50.221627,0.000000 19.097558,50.221227,0.000000 19.099097,50.220770,0.000000 19.100543,50.220385,0.000000 19.101883,50.220068,0.000000 19.102932,50.219843,0.000000 19.103947,50.219675,0.000000 19.105270,50.219453,0.000000 19.106922,50.219223,0.000000 19.108620,50.219028,0.000000 19.110632,50.218805,0.000000 19.112255,50.218622,0.000000 19.113315,50.218493,0.000000 19.114803,50.218327,0.000000 19.116305,50.218153,0.000000 19.117428,50.218023,0.000000 19.118575,50.217902,0.000000 19.119705,50.217780,0.000000 19.120898,50.217630,0.000000 19.120898,50.217630,0.000000 19.121925,50.217483,0.000000 19.121925,50.217483,0.000000 19.122970,50.217322,0.000000 19.122970,50.217322,0.000000 19.124167,50.217127,0.000000 19.124167,50.217127,0.000000 19.126060,50.216793,0.000000 19.126060,50.216793,0.000000 19.128997,50.216208,0.000000 19.128997,50.216208,0.000000 19.131995,50.215533,0.000000 19.131995,50.215533,0.000000 19.134933,50.214878,0.000000 19.134933,50.214878,0.000000 19.137658,50.214265,0.000000 19.137658,50.214265,0.000000 19.140407,50.213647,0.000000 19.140407,50.213647,0.000000 19.143163,50.213037,0.000000 19.143163,50.213037,0.000000 19.146060,50.212398,0.000000 19.146060,50.212398,0.000000 19.149035,50.211728,0.000000 19.149035,50.211728,0.000000 19.153035,50.210865,0.000000 19.153035,50.210865,0.000000 19.157825,50.209773,0.000000 19.157825,50.209773,0.000000 19.162782,50.208657,0.000000 19.162782,50.208657,0.000000 19.167707,50.207540,0.000000 19.167707,50.207540,0.000000 19.172867,50.206133,0.000000 19.172867,50.206133,0.000000 19.177297,50.204195,0.000000 19.177297,50.204195,0.000000 19.180925,50.201908,0.000000 19.180925,50.201908,0.000000 19.183702,50.199507,0.000000 19.183702,50.199507,0.000000 19.184648,50.198455,0.000000 19.184648,50.198455,0.000000 19.185153,50.197760,0.000000 19.185153,50.197760,0.000000 19.185628,50.197050,0.000000 19.185628,50.197050,0.000000 19.185628,50.197050,0.000000 19.185628,50.197050,0.000000 19.186128,50.196217,0.000000 19.186987,50.194500,0.000000 19.188107,50.192385,0.000000 19.189522,50.189818,0.000000 19.189522,50.189818,0.000000 19.191413,50.186887,0.000000 19.191413,50.186887,0.000000 19.193833,50.183982,0.000000 19.193833,50.183982,0.000000 19.196460,50.181497,0.000000 19.198860,50.179568,0.000000 19.201513,50.177720,0.000000 19.204263,50.175882,0.000000 19.207152,50.173948,0.000000 19.210182,50.171922,0.000000 19.213233,50.169863,0.000000 19.216312,50.167800,0.000000 19.219315,50.165772,0.000000 19.222220,50.163817,0.000000 19.225317,50.161737,0.000000 19.228662,50.159487,0.000000 19.232400,50.156975,0.000000 19.236067,50.154845,0.000000 19.240203,50.153050,0.000000 19.250200,50.150585,0.000000 19.256307,50.150078,0.000000 19.261985,50.149992,0.000000 19.266970,50.149938,0.000000 19.270935,50.149902,0.000000 19.275420,50.149842,0.000000 19.280295,50.149710,0.000000 19.285277,50.149413,0.000000 19.290453,50.149013,0.000000 19.295665,50.148625,0.000000 19.300777,50.148232,0.000000 19.305675,50.147872,0.000000 19.305675,50.147872,0.000000 19.310548,50.147700,0.000000 19.315695,50.147772,0.000000 19.315695,50.147772,0.000000 19.321143,50.148105,0.000000 19.326515,50.148708,0.000000 19.331562,50.149462,0.000000 19.336702,50.150237,0.000000 19.341748,50.150995,0.000000 19.346823,50.151763,0.000000 19.351695,50.152497,0.000000 19.356347,50.153077,0.000000 19.361042,50.153440,0.000000 19.365843,50.153612,0.000000 19.370813,50.153565,0.000000 19.375643,50.153292,0.000000 19.380638,50.152948,0.000000 19.385150,50.152625,0.000000 19.389475,50.152332,0.000000 19.394587,50.151988,0.000000 19.399692,50.151650,0.000000 19.404217,50.151340,0.000000 19.408070,50.151095,0.000000 19.411387,50.150870,0.000000 19.414132,50.150637,0.000000 19.414858,50.150630,0.000000 19.415652,50.150617,0.000000 19.418207,50.150268,0.000000 19.419768,50.149973,0.000000 19.422418,50.149348,0.000000 19.425953,50.148503,0.000000 19.430220,50.147380,0.000000 19.434010,50.146362,0.000000 19.434010,50.146362,0.000000 19.437302,50.145460,0.000000 19.439812,50.144777,0.000000 19.442877,50.143963,0.000000 19.442877,50.143963,0.000000 19.446117,50.143100,0.000000 19.449517,50.142195,0.000000 19.452953,50.141273,0.000000 19.456273,50.140387,0.000000 19.459433,50.139542,0.000000 19.462698,50.138618,0.000000 19.465672,50.137647,0.000000 19.468005,50.136762,0.000000 19.469462,50.136142,0.000000 19.470700,50.135587,0.000000 19.472622,50.134648,0.000000 19.474410,50.133680,0.000000 19.476348,50.132522,0.000000 19.477672,50.131700,0.000000 19.478755,50.131017,0.000000 19.479533,50.130503,0.000000 19.480235,50.130033,0.000000 19.481050,50.129508,0.000000 19.482165,50.128780,0.000000 19.483287,50.128053,0.000000 19.484865,50.127032,0.000000 19.487128,50.125588,0.000000 19.489920,50.123765,0.000000 19.492995,50.121755,0.000000 19.496408,50.119523,0.000000 19.499615,50.117417,0.000000 19.502882,50.115287,0.000000 19.502882,50.115287,0.000000 19.505813,50.113372,0.000000 19.508687,50.111588,0.000000 19.508687,50.111588,0.000000 19.511477,50.110093,0.000000 19.514782,50.108578,0.000000 19.518557,50.107170,0.000000 19.522455,50.105993,0.000000 19.526175,50.105097,0.000000 19.529522,50.104410,0.000000 19.533158,50.103677,0.000000 19.536903,50.102915,0.000000 19.540497,50.102185,0.000000 19.544123,50.101445,0.000000 19.548095,50.100625,0.000000 19.552308,50.099745,0.000000 19.556537,50.098687,0.000000 19.560040,50.097585,0.000000 19.563427,50.096283,0.000000 19.567305,50.094640,0.000000 19.571408,50.093027,0.000000 19.575803,50.091680,0.000000 19.580552,50.090645,0.000000 19.585520,50.089978,0.000000 19.590828,50.089703,0.000000 19.596223,50.089872,0.000000 19.601512,50.090503,0.000000 19.606347,50.091408,0.000000 19.611008,50.092357,0.000000 19.615580,50.092967,0.000000 19.619942,50.093193,0.000000 19.623450,50.093095,0.000000 19.623450,50.093095,0.000000 19.627040,50.092803,0.000000 19.630080,50.092542,0.000000 19.630080,50.092542,0.000000 19.632833,50.092380,0.000000 19.634977,50.092350,0.000000 19.637930,50.092473,0.000000 19.641308,50.092793,0.000000 19.644892,50.093198,0.000000 19.648695,50.093635,0.000000 19.652305,50.094047,0.000000 19.655927,50.094458,0.000000 19.659512,50.094853,0.000000 19.663002,50.095157,0.000000 19.666422,50.095247,0.000000 19.670285,50.095090,0.000000 19.673705,50.094727,0.000000 19.676950,50.094145,0.000000 19.680275,50.093323,0.000000 19.683365,50.092303,0.000000 19.686122,50.091177,0.000000 19.689005,50.089803,0.000000 19.692442,50.088032,0.000000 19.696420,50.085978,0.000000 19.700733,50.083767,0.000000 19.705242,50.081457,0.000000 19.709715,50.079177,0.000000 19.714388,50.077257,0.000000 19.719423,50.075953,0.000000 19.723633,50.075447,0.000000 19.729327,50.075392,0.000000 19.734447,50.075985,0.000000 19.734447,50.075985,0.000000 19.738900,50.077032,0.000000 19.743597,50.078405,0.000000 19.743597,50.078405,0.000000 19.748063,50.079315,0.000000 19.748063,50.079315,0.000000 19.752213,50.079683,0.000000 19.752213,50.079683,0.000000 19.755815,50.079723,0.000000 19.755815,50.079723,0.000000 19.759872,50.079700,0.000000 19.759872,50.079700,0.000000 19.764017,50.079728,0.000000 19.764017,50.079728,0.000000 19.768267,50.079968,0.000000 19.768267,50.079968,0.000000 19.772257,50.080442,0.000000 19.772257,50.080442,0.000000 19.775825,50.080950,0.000000 19.775825,50.080950,0.000000 19.778638,50.081352,0.000000 19.778638,50.081352,0.000000 19.781643,50.081772,0.000000 19.781643,50.081772,0.000000 19.784358,50.082190,0.000000 19.784358,50.082190,0.000000 19.785853,50.082410,0.000000 19.785853,50.082410,0.000000 19.786897,50.082557,0.000000 19.786897,50.082557,0.000000 19.787998,50.082720,0.000000 19.787998,50.082720,0.000000 19.789110,50.082880,0.000000 19.789110,50.082880,0.000000 19.790220,50.083033,0.000000 19.790220,50.083033,0.000000 19.790992,50.083138,0.000000 19.790992,50.083138,0.000000 19.792368,50.083357,0.000000 19.792368,50.083357,0.000000 19.792368,50.083357,0.000000 19.794932,50.083780,0.000000 19.794932,50.083780,0.000000 19.794932,50.083780,0.000000 19.797723,50.084353,0.000000 19.800597,50.085187,0.000000 19.803243,50.086058,0.000000 19.804325,50.086245,0.000000 19.805483,50.086182,0.000000 19.806582,50.085880,0.000000 19.806582,50.085880,0.000000 19.807070,50.085635,0.000000 19.807468,50.085338,0.000000 19.807987,50.084685,0.000000 19.807987,50.084685,0.000000 19.808163,50.084133,0.000000 19.808133,50.082363,0.000000 19.808210,50.080248,0.000000 19.808625,50.078252,0.000000 19.809143,50.076415,0.000000 19.809807,50.074053,0.000000 19.810427,50.071547,0.000000 19.810648,50.069115,0.000000 19.810392,50.066700,0.000000 19.809903,50.064455,0.000000 19.809497,50.061892,0.000000 19.809582,50.058957,0.000000 19.809807,50.055895,0.000000 19.809433,50.053365,0.000000 19.808055,50.050242,0.000000 19.806745,50.047210,0.000000 19.806608,50.045482,0.000000 19.807008,50.043748,0.000000 19.807923,50.042123,0.000000 19.810122,50.039667,0.000000 19.812465,50.037238,0.000000 19.814840,50.034775,0.000000 19.816555,50.032988,0.000000 19.817523,50.031982,0.000000 19.818770,50.030697,0.000000 19.820315,50.029102,0.000000 19.820315,50.029102,0.000000 19.821963,50.027405,0.000000 19.823617,50.025678,0.000000 19.825175,50.024052,0.000000 19.827010,50.022222,0.000000 19.829723,50.020275,0.000000 19.832938,50.018700,0.000000 19.832938,50.018700,0.000000 19.836915,50.017452,0.000000 19.841287,50.016270,0.000000 19.844383,50.014938,0.000000 19.846665,50.013458,0.000000 19.848462,50.011780,0.000000 19.849648,50.010117,0.000000 19.850567,50.007910,0.000000 19.851145,50.005658,0.000000 19.851722,50.003390,0.000000 19.852107,50.001902,0.000000 19.852442,50.000905,0.000000 19.852707,50.000373,0.000000 19.853252,49.999580,0.000000 19.854133,49.998547,0.000000 19.855410,49.997505,0.000000 19.857010,49.996613,0.000000 19.858405,49.996020,0.000000 19.860050,49.995512,0.000000 19.862385,49.995020,0.000000 19.864870,49.994537,0.000000 19.864870,49.994537,0.000000 19.866273,49.994262,0.000000 19.867378,49.994043,0.000000 19.868903,49.993743,0.000000 19.869932,49.993545,0.000000 19.869932,49.993545,0.000000 19.871003,49.993333,0.000000 19.872085,49.993125,0.000000 19.873837,49.992775,0.000000 19.876105,49.992327,0.000000 19.878148,49.991965,0.000000 19.880682,49.991577,0.000000 19.883545,49.991217,0.000000 19.886427,49.990923,0.000000 19.889255,49.990722,0.000000 19.892437,49.990580,0.000000 19.895802,49.990543,0.000000 19.899155,49.990610,0.000000 19.902272,49.990752,0.000000 19.904532,49.990877,0.000000 19.906873,49.991093,0.000000 19.909383,49.991368,0.000000 19.911732,49.991635,0.000000 19.913068,49.991818,0.000000 19.914135,49.991887,0.000000 19.914588,49.991778,0.000000 19.914908,49.991655,0.000000 19.915198,49.991492,0.000000 19.915198,49.991492,0.000000 19.915505,49.991238,0.000000 19.915635,49.991072,0.000000 19.915793,49.990703,0.000000 19.915800,49.990383,0.000000 19.915530,49.989415,0.000000 19.915530,49.989415,0.000000 19.915403,49.989152,0.000000 19.914967,49.988333,0.000000 19.914360,49.987148,0.000000 19.913818,49.986110,0.000000 19.913377,49.985332,0.000000 19.912810,49.984407,0.000000 19.912223,49.983358,0.000000 19.911837,49.982560,0.000000 19.911473,49.981737,0.000000 19.911040,49.980940,0.000000 19.910432,49.979793,0.000000 19.909873,49.978717,0.000000 19.909155,49.977350,0.000000 19.908450,49.975995,0.000000 19.908007,49.975143,0.000000 19.907598,49.974348,0.000000 19.907028,49.973265,0.000000 19.906197,49.971655,0.000000 19.905403,49.970142,0.000000 19.904385,49.968567,0.000000 19.904385,49.968567,0.000000 19.903655,49.968017,0.000000 19.902763,49.967600,0.000000 19.900613,49.966862,0.000000 19.898540,49.966080,0.000000 19.897900,49.965627,0.000000 19.896983,49.964548,0.000000 19.896423,49.964068,0.000000 19.895363,49.963447,0.000000 19.895363,49.963447,0.000000 19.894222,49.962853,0.000000 19.892828,49.962107,0.000000 19.891165,49.961227,0.000000 19.889255,49.960158,0.000000 19.888690,49.959603,0.000000 19.888508,49.959282,0.000000 19.888407,49.958565,0.000000 19.888593,49.957825,0.000000 19.889210,49.956113,0.000000 19.889815,49.954508,0.000000 19.889972,49.953860,0.000000 19.889840,49.952227,0.000000 19.889725,49.951498,0.000000 19.889310,49.950638,0.000000 19.889285,49.950472,0.000000 19.889480,49.950405,0.000000 19.889645,49.950365,0.000000 19.889717,49.950228,0.000000 19.889768,49.949695,0.000000 19.889707,49.949322,0.000000 19.889780,49.949300,0.000000 19.889925,49.949313,0.000000 19.889958,49.949352,0.000000 19.889973,49.949492,0.000000 19.889928,49.949680,0.000000 19.889862,49.949703,0.000000 19.889808,49.949692,0.000000 19.889782,49.949655,0.000000 19.889790,49.949320,0.000000 19.889790,49.949320,0.000000 19.889922,49.949305,0.000000 19.889970,49.949382,0.000000 19.889910,49.949628,0.000000 19.889743,49.949882,0.000000 19.889640,49.949902,0.000000 19.889425,49.949940,0.000000 19.889362,49.950010,0.000000 19.889362,49.950010,0.000000 19.889307,49.950035,0.000000 19.889307,49.950035,0.000000 19.889307,49.950035,0.000000 19.889307,49.950035,0.000000 19.889307,49.950035,0.000000 19.889307,49.950035,0.000000 19.889307,49.950035,0.000000 19.889307,49.950035,0.000000 19.889307,49.950035,0.000000 19.889307,49.950035,0.000000 19.889307,49.950035,0.000000 19.889307,49.950035,0.000000 19.889307,49.950035,0.000000 19.889307,49.950035,0.000000 19.889307,49.950035,0.000000 19.889307,49.950035,0.000000 19.889307,49.950035,0.000000 19.889307,49.950035,0.000000 19.889307,49.950035,0.000000 19.889488,49.949935,0.000000 19.889655,49.949945,0.000000 19.889857,49.949997,0.000000 19.889995,49.949968,0.000000 19.890123,49.949880,0.000000 19.890192,49.949748,0.000000 19.890578,49.948432,0.000000 19.890993,49.946605,0.000000 19.891360,49.944755,0.000000 19.891675,49.943753,0.000000 19.892725,49.942165,0.000000 19.894028,49.940205,0.000000 19.895150,49.938008,0.000000 19.895140,49.937163,0.000000 19.894755,49.936393,0.000000 19.894133,49.935705,0.000000 19.893713,49.935413,0.000000 19.892723,49.934950,0.000000 19.890672,49.934073,0.000000 19.889843,49.933398,0.000000 19.888050,49.931725,0.000000 19.885408,49.929938,0.000000 19.884648,49.929228,0.000000 19.884267,49.928527,0.000000 19.883672,49.927175,0.000000 19.883223,49.926173,0.000000 19.882870,49.925228,0.000000 19.882618,49.924483,0.000000 19.882760,49.922965,0.000000 19.882642,49.922285,0.000000 19.882340,49.921678,0.000000 19.880852,49.919988,0.000000 19.879233,49.918283,0.000000 19.879233,49.918283,0.000000 19.878297,49.917700,0.000000 19.875688,49.916402,0.000000 19.874228,49.914918,0.000000 19.872722,49.913325,0.000000 19.871195,49.911725,0.000000 19.869765,49.910028,0.000000 19.869450,49.909265,0.000000 19.869358,49.908128,0.000000 19.869742,49.906205,0.000000 19.869742,49.906205,0.000000 19.870537,49.904313,0.000000 19.871230,49.902310,0.000000 19.871875,49.900445,0.000000 19.872610,49.898492,0.000000 19.873450,49.895798,0.000000 19.874217,49.893320,0.000000 19.874750,49.892565,0.000000 19.875572,49.891902,0.000000 19.877510,49.890518,0.000000 19.879075,49.888462,0.000000 19.879495,49.887730,0.000000 19.879547,49.886948,0.000000 19.879378,49.886555,0.000000 19.878747,49.885860,0.000000 19.877667,49.884952,0.000000 19.877320,49.884237,0.000000 19.877373,49.883197,0.000000 19.877533,49.881523,0.000000 19.877838,49.879748,0.000000 19.878088,49.879438,0.000000 19.878448,49.879160,0.000000 19.878895,49.878927,0.000000 19.879432,49.878760,0.000000 19.880040,49.878690,0.000000 19.880685,49.878723,0.000000 19.883797,49.879238,0.000000 19.887000,49.879915,0.000000 19.889548,49.880380,0.000000 19.890850,49.880387,0.000000 19.892090,49.880163,0.000000 19.895118,49.879192,0.000000 19.898232,49.878153,0.000000 19.901440,49.877545,0.000000 19.903105,49.877158,0.000000 19.903900,49.876728,0.000000 19.903900,49.876728,0.000000 19.904372,49.876293,0.000000 19.905253,49.875042,0.000000 19.906052,49.873932,0.000000 19.906828,49.872863,0.000000 19.907622,49.871788,0.000000 19.908372,49.870617,0.000000 19.908697,49.868753,0.000000 19.909122,49.866695,0.000000 19.909423,49.866310,0.000000 19.909423,49.866310,0.000000 19.911112,49.864403,0.000000 19.911245,49.863592,0.000000 19.911048,49.862928,0.000000 19.910673,49.862365,0.000000 19.909507,49.861013,0.000000 19.908675,49.859735,0.000000 19.908637,49.858932,0.000000 19.908778,49.858547,0.000000 19.909020,49.858205,0.000000 19.909737,49.857617,0.000000 19.911582,49.856378,0.000000 19.913323,49.855073,0.000000 19.915212,49.853703,0.000000 19.917213,49.852648,0.000000 19.919388,49.851527,0.000000 19.922210,49.850005,0.000000 19.924855,49.848558,0.000000 19.925458,49.847922,0.000000 19.925825,49.846947,0.000000 19.926407,49.845410,0.000000 19.927232,49.844363,0.000000 19.928168,49.843637,0.000000 19.929250,49.843105,0.000000 19.930655,49.842705,0.000000 19.931850,49.842555,0.000000 19.935368,49.842400,0.000000 19.939283,49.841995,0.000000 19.943025,49.841508,0.000000 19.944257,49.841263,0.000000 19.944803,49.841035,0.000000 19.945295,49.840730,0.000000 19.947390,49.838675,0.000000 19.948763,49.837108,0.000000 19.948763,49.837108,0.000000 19.949675,49.834962,0.000000 19.950562,49.832847,0.000000 19.951477,49.830682,0.000000 19.951670,49.829827,0.000000 19.951592,49.829413,0.000000 19.951403,49.829022,0.000000 19.951098,49.828672,0.000000 19.950192,49.828073,0.000000 19.947277,49.826838,0.000000 19.944915,49.825995,0.000000 19.943148,49.825628,0.000000 19.942657,49.825423,0.000000 19.942248,49.825162,0.000000 19.941947,49.824857,0.000000 19.941947,49.824857,0.000000 19.940528,49.823043,0.000000 19.939017,49.821610,0.000000 19.936478,49.820015,0.000000 19.935210,49.819357,0.000000 19.931435,49.818027,0.000000 19.927770,49.816628,0.000000 19.924687,49.814762,0.000000 19.922948,49.813595,0.000000 19.922288,49.812707,0.000000 19.921855,49.811250,0.000000 19.922025,49.810272,0.000000 19.922700,49.809318,0.000000 19.924512,49.806848,0.000000 19.924993,49.805882,0.000000 19.925418,49.803372,0.000000 19.924843,49.800368,0.000000 19.924137,49.797433,0.000000 19.923452,49.795243,0.000000 19.923725,49.794152,0.000000 19.924838,49.792542,0.000000 19.925867,49.791583,0.000000 19.928533,49.790087,0.000000 19.931730,49.788960,0.000000 19.933365,49.788732,0.000000 19.937098,49.788178,0.000000 19.940238,49.787223,0.000000 19.942892,49.785782,0.000000 19.944015,49.785343,0.000000 19.945278,49.785103,0.000000 19.947872,49.784793,0.000000 19.949050,49.784363,0.000000 19.949050,49.784363,0.000000 19.950042,49.783695,0.000000 19.952278,49.781390,0.000000 19.954973,49.778747,0.000000 19.957553,49.776083,0.000000 19.958830,49.773102,0.000000 19.960055,49.770137,0.000000 19.960987,49.768507,0.000000 19.963097,49.766025,0.000000 19.963097,49.766025,0.000000 19.965248,49.763492,0.000000 19.965878,49.762488,0.000000 19.966638,49.759972,0.000000 19.967490,49.757217,0.000000 19.968082,49.756217,0.000000 19.970293,49.753960,0.000000 19.970782,49.752945,0.000000 19.971705,49.750190,0.000000 19.972742,49.748698,0.000000 19.974768,49.746160,0.000000 19.976438,49.743520,0.000000 19.977588,49.741340,0.000000 19.977615,49.740292,0.000000 19.977213,49.739270,0.000000 19.976415,49.738315,0.000000 19.975083,49.736927,0.000000 19.974667,49.735897,0.000000 19.974690,49.734807,0.000000 19.975160,49.733707,0.000000 19.976525,49.731192,0.000000 19.977757,49.728768,0.000000 19.978935,49.726503,0.000000 19.979170,49.725575,0.000000 19.979217,49.723005,0.000000 19.979493,49.721460,0.000000 19.980973,49.719017,0.000000 19.981462,49.718003,0.000000 19.981557,49.716887,0.000000 19.981207,49.715752,0.000000 19.980463,49.714750,0.000000 19.979353,49.713920,0.000000 19.976167,49.712113,0.000000 19.975147,49.711147,0.000000 19.973420,49.708482,0.000000 19.973420,49.708482,0.000000 19.972008,49.707153,0.000000 19.972008,49.707153,0.000000 19.969042,49.705063,0.000000 19.969042,49.705063,0.000000 19.965997,49.703005,0.000000 19.965997,49.703005,0.000000 19.962725,49.701360,0.000000 19.962725,49.701360,0.000000 19.962042,49.701230,0.000000 19.962042,49.701230,0.000000 19.960585,49.701220,0.000000 19.960585,49.701220,0.000000 19.959167,49.701483,0.000000 19.959167,49.701483,0.000000 19.956233,49.702033,0.000000 19.956233,49.702033,0.000000 19.953832,49.702118,0.000000 19.953832,49.702118,0.000000 19.952162,49.701975,0.000000 19.952162,49.701975,0.000000 19.949758,49.701440,0.000000 19.949758,49.701440,0.000000 19.948270,49.700882,0.000000 19.948270,49.700882,0.000000 19.948270,49.700882,0.000000 19.944648,49.699150,0.000000 19.944648,49.699150,0.000000 19.941107,49.697480,0.000000 19.941107,49.697480,0.000000 19.937300,49.696040,0.000000 19.937300,49.696040,0.000000 19.933122,49.694995,0.000000 19.933122,49.694995,0.000000 19.928483,49.694365,0.000000 19.928483,49.694365,0.000000 19.923695,49.694272,0.000000 19.923695,49.694272,0.000000 19.919032,49.694697,0.000000 19.919032,49.694697,0.000000 19.914358,49.695322,0.000000 19.914358,49.695322,0.000000 19.910555,49.695288,0.000000 19.910555,49.695288,0.000000 19.907845,49.694910,0.000000 19.907845,49.694910,0.000000 19.904540,49.694007,0.000000 19.904540,49.694007,0.000000 19.901425,49.692533,0.000000 19.901425,49.692533,0.000000 19.899443,49.691098,0.000000 19.899443,49.691098,0.000000 19.896845,49.688308,0.000000 19.896845,49.688308,0.000000 19.894510,49.685470,0.000000 19.894510,49.685470,0.000000 19.892182,49.682592,0.000000 19.892182,49.682592,0.000000 19.889735,49.679533,0.000000 19.889735,49.679533,0.000000 19.888337,49.677195,0.000000 19.888337,49.677195,0.000000 19.887615,49.674535,0.000000 19.887615,49.674535,0.000000 19.887743,49.671758,0.000000 19.887743,49.671758,0.000000 19.888510,49.669500,0.000000 19.888510,49.669500,0.000000 19.890007,49.667187,0.000000 19.890007,49.667187,0.000000 19.891768,49.665058,0.000000 19.891768,49.665058,0.000000 19.891768,49.665058,0.000000 19.891768,49.665058,0.000000 19.891768,49.665058,0.000000 19.891768,49.665058,0.000000 19.891768,49.665058,0.000000 19.891768,49.665058,0.000000 19.891768,49.665058,0.000000 19.906928,49.645672,0.000000 19.906928,49.645672,0.000000 19.906928,49.645672,0.000000 19.908478,49.642768,0.000000 19.908478,49.642768,0.000000 19.909937,49.640057,0.000000 19.909937,49.640057,0.000000 19.911482,49.637573,0.000000 19.911482,49.637573,0.000000 19.913167,49.635323,0.000000 19.913167,49.635323,0.000000 19.914825,49.633078,0.000000 19.914825,49.633078,0.000000 19.916220,49.630795,0.000000 19.916220,49.630795,0.000000 19.917418,49.628200,0.000000 19.917418,49.628200,0.000000 19.918380,49.625585,0.000000 19.918380,49.625585,0.000000 19.919633,49.623207,0.000000 19.919633,49.623207,0.000000 19.921390,49.620693,0.000000 19.921390,49.620693,0.000000 19.923175,49.618185,0.000000 19.923175,49.618185,0.000000 19.924850,49.615708,0.000000 19.924850,49.615708,0.000000 19.925852,49.613053,0.000000 19.925852,49.613053,0.000000 19.925852,49.613053,0.000000 19.925932,49.609870,0.000000 19.925212,49.607430,0.000000 19.924452,49.605732,0.000000 19.924588,49.604593,0.000000 19.925233,49.603545,0.000000 19.927323,49.601142,0.000000 19.927323,49.601142,0.000000 19.929307,49.598888,0.000000 19.929887,49.597960,0.000000 19.929887,49.597960,0.000000 19.930115,49.596987,0.000000 19.930507,49.594717,0.000000 19.930820,49.594063,0.000000 19.931152,49.593827,0.000000 19.931550,49.593647,0.000000 19.933242,49.593158,0.000000 19.933537,49.592932,0.000000 19.933738,49.592650,0.000000 19.933785,49.592318,0.000000 19.933190,49.590282,0.000000 19.932552,49.587985,0.000000 19.932168,49.586430,0.000000 19.932262,49.586117,0.000000 19.932492,49.585853,0.000000 19.932820,49.585652,0.000000 19.933243,49.585533,0.000000 19.933740,49.585492,0.000000 19.934295,49.585543,0.000000 19.935913,49.585888,0.000000 19.937330,49.586468,0.000000 19.937753,49.586493,0.000000 19.938130,49.586403,0.000000 19.938408,49.586215,0.000000 19.938555,49.585957,0.000000 19.938538,49.585678,0.000000 19.938337,49.585422,0.000000 19.938007,49.585220,0.000000 19.937180,49.584763,0.000000 19.936060,49.583685,0.000000 19.935820,49.583322,0.000000 19.935820,49.583322,0.000000 19.935692,49.582937,0.000000 19.935702,49.582528,0.000000 19.935858,49.582100,0.000000 19.937008,49.579647,0.000000 19.938007,49.577455,0.000000 19.938563,49.576805,0.000000 19.938997,49.576545,0.000000 19.939517,49.576340,0.000000 19.942300,49.575710,0.000000 19.943363,49.575317,0.000000 19.946012,49.574163,0.000000 19.947212,49.573578,0.000000 19.947452,49.573333,0.000000 19.947592,49.573030,0.000000 19.947627,49.572655,0.000000 19.947063,49.570168,0.000000 19.945965,49.567362,0.000000 19.944478,49.564807,0.000000 19.942740,49.562490,0.000000 19.940862,49.560393,0.000000 19.939672,49.558783,0.000000 19.939198,49.557440,0.000000 19.939122,49.555973,0.000000 19.939593,49.554367,0.000000 19.940723,49.552737,0.000000 19.941847,49.551750,0.000000 19.944060,49.550478,0.000000 19.945855,49.549833,0.000000 19.947827,49.549407,0.000000 19.952667,49.548822,0.000000 19.955093,49.548220,0.000000 19.955093,49.548220,0.000000 19.958660,49.546802,0.000000 19.962305,49.545732,0.000000 19.964888,49.544707,0.000000 19.966547,49.543633,0.000000 19.969090,49.541302,0.000000 19.971265,49.538905,0.000000 19.971980,49.537292,0.000000 19.972175,49.534900,0.000000 19.972290,49.532012,0.000000 19.972430,49.529128,0.000000 19.972205,49.526320,0.000000 19.972020,49.523437,0.000000 19.972465,49.521662,0.000000 19.972465,49.521662,0.000000 19.973537,49.519878,0.000000 19.975177,49.518277,0.000000 19.978650,49.516037,0.000000 19.981975,49.513937,0.000000 19.985435,49.511700,0.000000 19.987410,49.509870,0.000000 19.988943,49.507315,0.000000 19.989483,49.505350,0.000000 19.989362,49.503492,0.000000 19.988728,49.501485,0.000000 19.987477,49.499477,0.000000 19.985368,49.496318,0.000000 19.984887,49.494275,0.000000 19.985135,49.492210,0.000000 19.986132,49.490172,0.000000 19.988097,49.487625,0.000000 19.991117,49.484973,0.000000 19.994550,49.482600,0.000000 19.996235,49.480992,0.000000 19.997757,49.478665,0.000000 19.999088,49.475617,0.000000 20.000377,49.472880,0.000000 20.001872,49.470947,0.000000 20.001872,49.470947,0.000000 20.003885,49.469233,0.000000 20.006362,49.467750,0.000000 20.009020,49.466697,0.000000 20.012453,49.465855,0.000000 20.015947,49.465382,0.000000 20.018388,49.464893,0.000000 20.019248,49.464468,0.000000 20.019628,49.464175,0.000000 20.020163,49.463470,0.000000 20.020397,49.462712,0.000000 20.020342,49.460787,0.000000 20.020298,49.459360,0.000000 20.020252,49.459132,0.000000 20.020082,49.458940,0.000000 20.020150,49.458815,0.000000 20.020247,49.458680,0.000000 20.020263,49.458495,0.000000 20.020245,49.456985,0.000000 20.020245,49.456985,0.000000 20.020263,49.454905,0.000000 20.020302,49.452740,0.000000 20.020327,49.450868,0.000000 20.020297,49.449190,0.000000 20.020245,49.447682,0.000000 20.020117,49.446610,0.000000 20.020052,49.446495,0.000000 20.019990,49.446385,0.000000 20.020057,49.446267,0.000000 20.020102,49.446120,0.000000 20.020268,49.444885,0.000000 20.020335,49.443610,0.000000 20.020400,49.442327,0.000000 20.020550,49.440943,0.000000 20.021002,49.439598,0.000000 20.021433,49.438328,0.000000 20.021958,49.436903,0.000000 20.022200,49.435805,0.000000 20.021920,49.434505,0.000000 20.021480,49.432892,0.000000 20.021010,49.431213,0.000000 20.021010,49.431213,0.000000 20.020753,49.430197,0.000000 20.020482,49.429195,0.000000 20.020203,49.428182,0.000000 20.019945,49.427185,0.000000 20.019667,49.426120,0.000000 20.019453,49.425147,0.000000 20.019433,49.424870,0.000000 20.019433,49.424870,0.000000 20.019280,49.423688,0.000000 20.019093,49.422202,0.000000 20.018897,49.420485,0.000000 20.018652,49.418507,0.000000 20.018410,49.416560,0.000000 20.018260,49.415327,0.000000 20.018135,49.414237,0.000000 20.017963,49.412910,0.000000 20.017813,49.411670,0.000000 20.017640,49.410273,0.000000 20.017488,49.409018,0.000000 20.017353,49.407913,0.000000 20.017207,49.406742,0.000000 20.017143,49.405363,0.000000 20.017082,49.403878,0.000000 20.017082,49.403878,0.000000 20.017023,49.402505,0.000000 20.016970,49.401313,0.000000 20.016915,49.400075,0.000000 20.016868,49.398945,0.000000 20.016825,49.397583,0.000000 20.016767,49.396203,0.000000 20.016703,49.394585,0.000000 20.016600,49.392988,0.000000 20.016165,49.391980,0.000000 20.015568,49.390807,0.000000 20.015568,49.390807,0.000000 20.014975,49.389628,0.000000 20.014362,49.388410,0.000000 20.013755,49.387167,0.000000 20.013112,49.385878,0.000000 20.012567,49.384753,0.000000 20.012062,49.383757,0.000000 20.011577,49.382743,0.000000 20.011000,49.381112,0.000000 20.010560,49.379773,0.000000 20.010082,49.378717,0.000000 20.009300,49.377630,0.000000 20.008462,49.376447,0.000000 20.007742,49.375443,0.000000 20.006990,49.374392,0.000000 20.006217,49.373302,0.000000 20.005435,49.372210,0.000000 20.004820,49.371342,0.000000 20.004212,49.370480,0.000000 20.003507,49.369505,0.000000 20.003507,49.369505,0.000000 20.002713,49.368323,0.000000 20.002248,49.367048,0.000000 20.001893,49.365680,0.000000 20.001752,49.364657,0.000000 20.001838,49.363460,0.000000 20.001947,49.363093,0.000000 20.002192,49.362760,0.000000 20.002590,49.362458,0.000000 20.003382,49.362120,0.000000 20.004640,49.361570,0.000000 20.005575,49.360993,0.000000 20.006250,49.360393,0.000000 20.006663,49.359745,0.000000 20.006890,49.358745,0.000000 20.006858,49.358097,0.000000 20.006858,49.358097,0.000000 20.006675,49.357062,0.000000 20.006507,49.355825,0.000000 20.006298,49.354452,0.000000 20.006087,49.353112,0.000000 20.005818,49.352458,0.000000 20.005222,49.351773,0.000000 20.003895,49.350443,0.000000 20.003727,49.350152,0.000000 20.003610,49.349507,0.000000 20.003468,49.347928,0.000000 20.003333,49.346500,0.000000 20.003187,49.345037,0.000000 20.003180,49.343612,0.000000 20.003252,49.342218,0.000000 20.003320,49.340893,0.000000 20.003290,49.340243,0.000000 20.003178,49.340048,0.000000 20.003082,49.339985,0.000000 20.002830,49.339865,0.000000 20.002837,49.339768,0.000000 20.002945,49.339673,0.000000 20.003028,49.339542,0.000000 20.003050,49.338825,0.000000 20.002707,49.337372,0.000000 20.002313,49.335958,0.000000 20.002313,49.335958,0.000000 20.001900,49.334360,0.000000 20.001378,49.333383,0.000000 20.000127,49.331868,0.000000 19.999467,49.331315,0.000000 19.998647,49.330872,0.000000 19.996815,49.330208,0.000000 19.996693,49.330153,0.000000 19.996688,49.330085,0.000000 19.996800,49.330015,0.000000 19.997138,49.329782,0.000000 19.997113,49.329682,0.000000 19.996572,49.328970,0.000000 19.995905,49.328172,0.000000 19.995443,49.327293,0.000000 19.994962,49.326378,0.000000 19.994960,49.326263,0.000000 19.995262,49.325935,0.000000 19.995262,49.325935,0.000000 19.995457,49.325745,0.000000 19.995447,49.325630,0.000000 19.995117,49.324683,0.000000 19.994910,49.323848,0.000000 19.994797,49.323265,0.000000 19.994622,49.323013,0.000000 19.994087,49.322232,0.000000 19.993605,49.321367,0.000000 19.993580,49.321205,0.000000 19.993603,49.321048,0.000000 19.993925,49.320117,0.000000 19.994128,49.319135,0.000000 19.994220,49.318723,0.000000 19.994148,49.317510,0.000000 19.994210,49.316782,0.000000 19.994158,49.316345,0.000000 19.994175,49.316230,0.000000 19.994198,49.316123,0.000000 19.994162,49.315865,0.000000 19.993887,49.315212,0.000000 19.993805,49.315107,0.000000 19.993805,49.315107,0.000000 19.993920,49.314033,0.000000 19.993935,49.313447,0.000000 19.994100,49.312982,0.000000 19.994768,49.311680,0.000000 19.995315,49.310445,0.000000 19.995660,49.309513,0.000000 19.995677,49.309012,0.000000 19.995523,49.308538,0.000000 19.995523,49.308538,0.000000 19.995523,49.308538,0.000000 19.995523,49.308538,0.000000 19.995523,49.308538,0.000000 19.995523,49.308538,0.000000 19.995523,49.308538,0.000000 19.995523,49.308538,0.000000 19.995390,49.308292,0.000000 19.995290,49.308103,0.000000 19.995053,49.307598,0.000000 19.994902,49.307445,0.000000 19.994677,49.307318,0.000000 19.993900,49.306940,0.000000 19.993703,49.306750,0.000000 19.993585,49.306530,0.000000 19.993557,49.306287,0.000000 19.993793,49.305092,0.000000 19.994047,49.303823,0.000000 19.994307,49.303080,0.000000 19.994732,49.302595,0.000000 19.995108,49.302107,0.000000 19.995315,49.301363,0.000000 19.995245,49.301113,0.000000 19.995090,49.300880,0.000000 19.994143,49.299867,0.000000 19.993062,49.298758,0.000000 19.991423,49.297845,0.000000 19.989743,49.296908,0.000000 19.988120,49.296007,0.000000 19.986355,49.295112,0.000000 19.984773,49.294432,0.000000 19.983255,49.293727,0.000000 19.982823,49.293337,0.000000 19.982025,49.292313,0.000000 19.981403,49.291438,0.000000 19.981403,49.291438,0.000000 19.980960,49.290270,0.000000 19.980603,49.289077,0.000000 19.980250,49.287923,0.000000 19.980185,49.287155,0.000000 19.980223,49.285960,0.000000 19.980183,49.285383,0.000000 19.980035,49.285227,0.000000 19.980103,49.285133,0.000000 19.980352,49.284987,0.000000 19.980483,49.284978,0.000000 19.980602,49.285015,0.000000 19.980745,49.285045,0.000000 19.982030,49.285187,0.000000 19.983413,49.285263,0.000000 19.984675,49.284923,0.000000 19.985403,49.284770,0.000000 19.986702,49.284567,0.000000 19.986702,49.284567,0.000000 19.988095,49.284357,0.000000 19.989522,49.284148,0.000000 19.990807,49.283957,0.000000 19.991047,49.283988,0.000000 19.991060,49.284085,0.000000 19.990925,49.284557,0.000000 19.990778,49.285293,0.000000 19.990872,49.285315,0.000000 19.991253,49.285353,0.000000 19.991253,49.285353,0.000000 19.991253,49.285353,0.000000</coordinates></LineString></Placemark></Document></kml>