<?xml version="1.0" encoding="UTF-8"?><kml xmlns="http://www.opengis.net/kml/2.2"><Document><name>Tracker</name><Placemark><name>2024-11-29 11:11 - 2024-11-29 11:27</name><LineString><extrude>1</extrude><tessellate>1</tessellate><altitudeMode>absolute</altitudeMode><coordinates>18.843377,50.361755,0.000000 18.843438,50.361207,0.000000 18.843390,50.361145,0.000000 18.843378,50.361040,0.000000 18.843207,50.361013,0.000000 18.841853,50.360913,0.000000 18.839978,50.360583,0.000000 18.838417,50.360238,0.000000 18.838327,50.360157,0.000000 18.838198,50.360013,0.000000 18.838220,50.359895,0.000000 18.838632,50.358893,0.000000 18.839017,50.358082,0.000000 18.839448,50.357210,0.000000 18.839908,50.356302,0.000000 18.840097,50.355795,0.000000 18.840017,50.355745,0.000000 18.839903,50.355725,0.000000 18.839775,50.355713,0.000000 18.839648,50.355732,0.000000 18.838788,50.355853,0.000000 18.838417,50.355963,0.000000 18.837842,50.356132,0.000000 18.837842,50.356132,0.000000 18.837842,50.356132,0.000000 18.837465,50.356422,0.000000 18.837678,50.356358,0.000000 18.837662,50.356323,0.000000 18.837662,50.356323,0.000000 18.837662,50.356323,0.000000 18.837308,50.356492,0.000000 18.837148,50.356703,0.000000 18.837037,50.356915,0.000000 18.837065,50.356992,0.000000 18.837175,50.357027,0.000000 18.837287,50.357060,0.000000 18.837690,50.357125,0.000000 18.838857,50.357367,0.000000 18.839350,50.357435,0.000000 18.839442,50.357310,0.000000 18.839612,50.357052,0.000000 18.839963,50.356128,0.000000 18.840438,50.355125,0.000000 18.840983,50.354103,0.000000 18.841312,50.353235,0.000000 18.841508,50.352745,0.000000 18.841955,50.352165,0.000000 18.841810,50.352232,0.000000 18.841740,50.352337,0.000000 18.841277,50.352967,0.000000 18.841355,50.353028,0.000000 18.841460,50.353068,0.000000 18.841597,50.353135,0.000000 18.842792,50.353380,0.000000 18.844237,50.353670,0.000000 18.845708,50.353912,0.000000 18.847313,50.354285,0.000000 18.849332,50.354723,0.000000 18.851452,50.355145,0.000000 18.853498,50.355577,0.000000 18.855240,50.355947,0.000000 18.856872,50.356527,0.000000 18.857288,50.356592,0.000000 18.857555,50.356568,0.000000 18.858233,50.356425,0.000000 18.860302,50.356017,0.000000 18.861492,50.355695,0.000000 18.863068,50.355105,0.000000 18.863068,50.355105,0.000000 18.863068,50.355105,0.000000 18.863917,50.354695,0.000000 18.865080,50.354222,0.000000 18.865508,50.354063,0.000000 18.866455,50.353813,0.000000 18.867167,50.353700,0.000000 18.869202,50.353545,0.000000 18.871485,50.353400,0.000000 18.873583,50.353198,0.000000 18.875295,50.353033,0.000000 18.876207,50.352900,0.000000 18.877252,50.352762,0.000000 18.879418,50.352505,0.000000</coordinates></LineString></Placemark></Document></kml>