<?xml version='1.0' encoding='utf-8'?>
<kml xmlns="http://www.opengis.net/kml/2.2"><Document><name>Tracker</name><Placemark><name>2024-11-27 15:00 - 2024-11-27 19:00</name><LineString><extrude>1</extrude><tessellate>1</tessellate><altitudeMode>absolute</altitudeMode><coordinates>18.847993,50.371352,0.000000 18.847993,50.371352,0.000000 18.847993,50.371352,0.000000 18.847993,50.371352,0.000000 18.847993,50.371352,0.000000 18.847993,50.371352,0.000000 18.847993,50.371352,0.000000 18.847993,50.371352,0.000000 18.847993,50.371352,0.000000 18.876230,50.352860,0.000000 18.876463,50.352835,0.000000 18.877837,50.352647,0.000000 18.879838,50.352472,0.000000 18.881797,50.352327,0.000000 18.883828,50.352138,0.000000 18.885862,50.351847,0.000000 18.887882,50.351632,0.000000 18.889402,50.351517,0.000000 18.889510,50.351523,0.000000 18.889510,50.351523,0.000000 18.889510,50.351523,0.000000 18.889653,50.351475,0.000000 18.890190,50.351408,0.000000 18.892250,50.351155,0.000000 18.894857,50.350828,0.000000 18.897222,50.350560,0.000000 18.899292,50.350313,0.000000 18.901338,50.350095,0.000000 18.903193,50.349877,0.000000 18.905147,50.349612,0.000000 18.907260,50.349372,0.000000 18.909282,50.349228,0.000000 18.911413,50.348940,0.000000 18.913297,50.348683,0.000000 18.914545,50.348517,0.000000 18.914680,50.348460,0.000000 18.914733,50.348345,0.000000 18.914608,50.348177,0.000000 18.914217,50.347382,0.000000 18.913598,50.346067,0.000000 18.913040,50.344712,0.000000 18.913103,50.344427,0.000000 18.913430,50.343917,0.000000 18.913732,50.343727,0.000000 18.914083,50.343618,0.000000 18.914718,50.343510,0.000000 18.915567,50.343412,0.000000 18.916142,50.343505,0.000000 18.916842,50.343170,0.000000 18.916842,50.343170,0.000000 18.916842,50.343170,0.000000 18.916842,50.343170,0.000000 18.916842,50.343170,0.000000 18.917445,50.341183,0.000000 18.918317,50.339992,0.000000 18.919002,50.339317,0.000000 18.920357,50.338250,0.000000 18.921702,50.337153,0.000000 18.923028,50.336078,0.000000 18.924405,50.334843,0.000000 18.926183,50.333435,0.000000 18.926732,50.332847,0.000000 18.927050,50.332233,0.000000 18.927588,50.330657,0.000000 18.927772,50.329340,0.000000 18.928022,50.328382,0.000000 18.928103,50.327693,0.000000 18.928048,50.327445,0.000000 18.927997,50.327315,0.000000 18.927977,50.327002,0.000000 18.927730,50.325970,0.000000 18.927558,50.324905,0.000000 18.927293,50.323965,0.000000 18.926983,50.323083,0.000000 18.926808,50.322737,0.000000 18.926645,50.321568,0.000000 18.926362,50.320583,0.000000 18.926400,50.320548,0.000000 18.926540,50.320470,0.000000 18.926522,50.320337,0.000000 18.926442,50.320107,0.000000 18.926038,50.318785,0.000000 18.926038,50.318785,0.000000 18.926038,50.318785,0.000000 18.925678,50.317445,0.000000 18.925388,50.316107,0.000000 18.925155,50.314768,0.000000 18.924872,50.313412,0.000000 18.924552,50.312135,0.000000 18.924292,50.311097,0.000000 18.923727,50.310197,0.000000 18.923012,50.309300,0.000000 18.922400,50.308515,0.000000 18.921875,50.307973,0.000000 18.921677,50.307925,0.000000 18.921522,50.307958,0.000000 18.921370,50.308122,0.000000 18.920368,50.309037,0.000000 18.919597,50.309657,0.000000 18.919665,50.309748,0.000000 18.920060,50.310125,0.000000 18.920548,50.310440,0.000000 18.921355,50.310908,0.000000 18.921852,50.311243,0.000000 18.921852,50.311243,0.000000 18.921852,50.311243,0.000000 18.921852,50.311243,0.000000 18.921852,50.311243,0.000000 18.921273,50.310750,0.000000 18.920463,50.310365,0.000000 18.919648,50.309955,0.000000 18.919165,50.309540,0.000000 18.917932,50.308930,0.000000 18.916473,50.308288,0.000000 18.916473,50.308288,0.000000 18.916473,50.308288,0.000000 18.915075,50.307768,0.000000 18.913523,50.307605,0.000000 18.912887,50.307492,0.000000 18.912958,50.307403,0.000000 18.913047,50.306923,0.000000 18.913057,50.306685,0.000000 18.912815,50.305972,0.000000 18.912397,50.304990,0.000000 18.912212,50.303923,0.000000 18.912090,50.302752,0.000000 18.911963,50.301560,0.000000 18.912008,50.300380,0.000000 18.912002,50.300108,0.000000 18.912125,50.300022,0.000000 18.912330,50.299947,0.000000 18.913672,50.299542,0.000000 18.915015,50.299065,0.000000 18.916283,50.298763,0.000000 18.917333,50.298577,0.000000 18.917912,50.298422,0.000000 18.917905,50.298287,0.000000 18.917867,50.298123,0.000000 18.917623,50.297590,0.000000 18.917223,50.296690,0.000000 18.917057,50.296083,0.000000 18.916917,50.295220,0.000000 18.917015,50.294048,0.000000 18.916997,50.293580,0.000000 18.916917,50.293417,0.000000 18.916917,50.293417,0.000000 18.916710,50.293157,0.000000 18.916710,50.293157,0.000000 18.916180,50.292640,0.000000 18.916083,50.292462,0.000000 18.915843,50.292087,0.000000 18.915640,50.291570,0.000000 18.915530,50.291543,0.000000 18.915323,50.291555,0.000000 18.915023,50.291670,0.000000 18.914705,50.291738,0.000000 18.914600,50.291702,0.000000 18.914542,50.291593,0.000000 18.914123,50.290613,0.000000 18.914133,50.289423,0.000000 18.913997,50.288198,0.000000 18.913815,50.287125,0.000000 18.913670,50.285842,0.000000 18.913423,50.284623,0.000000 18.913205,50.283635,0.000000 18.913068,50.283325,0.000000 18.913093,50.283210,0.000000 18.913323,50.282532,0.000000 18.913290,50.282242,0.000000 18.913163,50.281845,0.000000 18.913217,50.281807,0.000000 18.913333,50.281790,0.000000 18.914048,50.281742,0.000000 18.914117,50.281802,0.000000 18.914125,50.282087,0.000000 18.914048,50.282070,0.000000 18.913642,50.282103,0.000000 18.913642,50.282103,0.000000 18.913642,50.282103,0.000000 18.914040,50.281973,0.000000 18.913973,50.281992,0.000000 18.913957,50.281842,0.000000 18.913993,50.281925,0.000000 18.913993,50.281925,0.000000 18.913993,50.281925,0.000000 18.913993,50.281925,0.000000 18.913993,50.281925,0.000000 18.913947,50.281740,0.000000 18.914088,50.281778,0.000000 18.914088,50.281778,0.000000 18.914088,50.281778,0.000000 18.913717,50.282147,0.000000 18.913810,50.282143,0.000000 18.914182,50.282157,0.000000 18.914212,50.282557,0.000000 18.914355,50.282743,0.000000 18.914487,50.282768,0.000000 18.914580,50.282688,0.000000 18.914878,50.282555,0.000000 18.914878,50.282555,0.000000 18.914878,50.282555,0.000000 18.914878,50.282555,0.000000 18.914878,50.282555,0.000000 18.915298,50.282307,0.000000 18.915415,50.282185,0.000000 18.915347,50.282045,0.000000 18.915387,50.282183,0.000000 18.915083,50.282445,0.000000 18.915065,50.282513,0.000000 18.915182,50.282687,0.000000 18.915287,50.282410,0.000000 18.915287,50.282410,0.000000 18.915287,50.282410,0.000000 18.914970,50.282757,0.000000 18.914908,50.282852,0.000000 18.914820,50.282847,0.000000 18.914502,50.282802,0.000000 18.914328,50.282600,0.000000 18.914168,50.282163,0.000000 18.914078,50.282155,0.000000 18.913588,50.282187,0.000000 18.913630,50.282290,0.000000 18.913517,50.282275,0.000000 18.913350,50.282317,0.000000 18.913350,50.282317,0.000000 18.913330,50.282373,0.000000 18.913330,50.282373,0.000000 18.913320,50.282440,0.000000 18.913428,50.283228,0.000000 18.913497,50.283490,0.000000 18.913428,50.283625,0.000000 18.913243,50.283977,0.000000 18.913280,50.284412,0.000000 18.913533,50.285727,0.000000 18.913875,50.287048,0.000000 18.914118,50.288108,0.000000 18.914185,50.289360,0.000000 18.914298,50.290508,0.000000 18.914600,50.291193,0.000000 18.914780,50.291228,0.000000 18.914968,50.291223,0.000000 18.915672,50.291253,0.000000 18.915685,50.291392,0.000000 18.915838,50.291910,0.000000 18.916270,50.292650,0.000000 18.917092,50.293537,0.000000 18.917115,50.293948,0.000000 18.916988,50.295073,0.000000 18.916987,50.295693,0.000000 18.917245,50.296635,0.000000 18.917568,50.297542,0.000000 18.917900,50.298378,0.000000 18.918128,50.299413,0.000000 18.918347,50.300428,0.000000 18.918612,50.301425,0.000000 18.918878,50.302543,0.000000 18.919213,50.303688,0.000000 18.919417,50.304458,0.000000 18.919750,50.305380,0.000000 18.920745,50.306582,0.000000 18.920745,50.306582,0.000000 18.920745,50.306582,0.000000 18.921750,50.307743,0.000000 18.922672,50.308807,0.000000 18.923603,50.309898,0.000000 18.924118,50.310555,0.000000 18.924245,50.310808,0.000000 18.924613,50.311815,0.000000 18.924803,50.313058,0.000000 18.925122,50.314290,0.000000 18.925438,50.315542,0.000000 18.925715,50.316858,0.000000 18.926000,50.318097,0.000000 18.926213,50.319132,0.000000 18.926458,50.319987,0.000000 18.926668,50.321160,0.000000 18.926930,50.322255,0.000000 18.927210,50.323435,0.000000 18.927448,50.324665,0.000000 18.927707,50.325887,0.000000 18.928018,50.327103,0.000000 18.928270,50.328210,0.000000 18.928132,50.329395,0.000000 18.927803,50.330630,0.000000 18.927355,50.331823,0.000000 18.926867,50.332975,0.000000 18.925893,50.333970,0.000000 18.925893,50.333970,0.000000 18.924255,50.335192,0.000000 18.924255,50.335192,0.000000 18.922373,50.336757,0.000000 18.920590,50.338257,0.000000 18.919043,50.339463,0.000000 18.918123,50.340327,0.000000 18.917370,50.341373,0.000000 18.916878,50.342010,0.000000 18.916695,50.342075,0.000000 18.915162,50.342365,0.000000 18.914372,50.342345,0.000000 18.913965,50.342278,0.000000 18.912065,50.341688,0.000000 18.910355,50.341212,0.000000 18.909308,50.340907,0.000000 18.908353,50.340587,0.000000 18.906932,50.340135,0.000000 18.905467,50.339668,0.000000 18.904422,50.339272,0.000000 18.902935,50.338677,0.000000 18.901285,50.338057,0.000000 18.900072,50.337562,0.000000 18.899760,50.337415,0.000000 18.899760,50.337415,0.000000 18.899717,50.337353,0.000000 18.899753,50.337322,0.000000 18.899753,50.337322,0.000000 18.899987,50.337160,0.000000 18.899955,50.337107,0.000000 18.899803,50.337018,0.000000 18.899483,50.336915,0.000000 18.899335,50.336760,0.000000 18.899327,50.336665,0.000000 18.899327,50.336665,0.000000 18.899327,50.336665,0.000000 18.899257,50.336568,0.000000 18.899408,50.336772,0.000000 18.898963,50.336970,0.000000 18.899612,50.336287,0.000000 18.899612,50.336287,0.000000 18.899612,50.336287,0.000000 18.899612,50.336287,0.000000 18.899612,50.336287,0.000000 18.899612,50.336287,0.000000 18.899612,50.336287,0.000000 18.899002,50.336803,0.000000 18.898763,50.336373,0.000000 18.898893,50.336328,0.000000 18.899315,50.336408,0.000000 18.899173,50.336362,0.000000 18.899173,50.336362,0.000000 18.899173,50.336362,0.000000 18.898943,50.336555,0.000000 18.898742,50.336585,0.000000 18.898567,50.336498,0.000000 18.899225,50.336055,0.000000 18.898677,50.336503,0.000000 18.898387,50.336488,0.000000 18.899162,50.337577,0.000000 18.899162,50.337577,0.000000 18.899162,50.337577,0.000000 18.899162,50.337577,0.000000 18.899162,50.337577,0.000000 18.899162,50.337577,0.000000 18.899162,50.337577,0.000000 18.899392,50.336702,0.000000 18.899235,50.336643,0.000000 18.898665,50.336047,0.000000 18.898538,50.336048,0.000000 18.898433,50.336070,0.000000 18.898290,50.336105,0.000000 18.897655,50.336325,0.000000 18.897410,50.336403,0.000000 18.897112,50.336407,0.000000 18.896252,50.336373,0.000000 18.894368,50.336770,0.000000 18.892712,50.337320,0.000000 18.891850,50.337632,0.000000 18.890713,50.337848,0.000000 18.890002,50.337852,0.000000 18.888173,50.337782,0.000000 18.888173,50.337782,0.000000 18.888173,50.337782,0.000000 18.887002,50.337788,0.000000 18.885797,50.337798,0.000000 18.883830,50.338033,0.000000 18.881517,50.338393,0.000000 18.879023,50.338670,0.000000 18.876760,50.338910,0.000000 18.875362,50.339097,0.000000</coordinates></LineString><ExtendedData><Data name="speed_0"><value>1.3651205702151097e-11</value></Data><Data name="speed_limit_0"><value>50</value></Data><Data name="speed_difference_0"><value>-49.99999999998635</value></Data><Data name="speed_1"><value>1.3651205702151097e-11</value></Data><Data name="speed_limit_1"><value>50</value></Data><Data name="speed_difference_1"><value>-49.99999999998635</value></Data><Data name="speed_2"><value>1.3651205702151097e-11</value></Data><Data name="speed_limit_2"><value>50</value></Data><Data name="speed_difference_2"><value>-49.99999999998635</value></Data><Data name="speed_3"><value>1.3651205702151097e-11</value></Data><Data name="speed_limit_3"><value>50</value></Data><Data name="speed_difference_3"><value>-49.99999999998635</value></Data><Data name="speed_4"><value>1.3651205702151097e-11</value></Data><Data name="speed_limit_4"><value>50</value></Data><Data name="speed_difference_4"><value>-49.99999999998635</value></Data><Data name="speed_5"><value>1.3651205702151097e-11</value></Data><Data name="speed_limit_5"><value>50</value></Data><Data name="speed_difference_5"><value>-49.99999999998635</value></Data><Data name="speed_6"><value>1.3651205702151097e-11</value></Data><Data name="speed_limit_6"><value>50</value></Data><Data name="speed_difference_6"><value>-49.99999999998635</value></Data><Data name="speed_7"><value>1.3651205702151097e-11</value></Data><Data name="speed_limit_7"><value>50</value></Data><Data name="speed_difference_7"><value>-49.99999999998635</value></Data><Data name="speed_8"><value>1035.1577660023959</value></Data><Data name="speed_limit_8"><value>50</value></Data><Data name="speed_difference_8"><value>985.1577660023959</value></Data><Data name="speed_9"><value>6.053072874971941</value></Data><Data name="speed_limit_9"><value>50</value></Data><Data name="speed_difference_9"><value>-43.94692712502806</value></Data><Data name="speed_10"><value>35.999435959714965</value></Data><Data name="speed_limit_10"><value>50</value></Data><Data name="speed_difference_10"><value>-14.000564040285035</value></Data><Data name="speed_11"><value>51.74481940917222</value></Data><Data name="speed_limit_11"><value>50</value></Data><Data name="speed_difference_11"><value>1.744819409172223</value></Data><Data name="speed_12"><value>50.52690786808244</value></Data><Data name="speed_limit_12"><value>50</value></Data><Data name="speed_difference_12"><value>0.5269078680824393</value></Data><Data name="speed_13"><value>52.58459211162004</value></Data><Data name="speed_limit_13"><value>50</value></Data><Data name="speed_difference_13"><value>2.58459211162004</value></Data><Data name="speed_14"><value>53.40116257385435</value></Data><Data name="speed_limit_14"><value>50</value></Data><Data name="speed_difference_14"><value>3.40116257385435</value></Data><Data name="speed_15"><value>52.46700474825388</value></Data><Data name="speed_limit_15"><value>50</value></Data><Data name="speed_difference_15"><value>2.4670047482538777</value></Data><Data name="speed_16"><value>39.21640574855593</value></Data><Data name="speed_limit_16"><value>50</value></Data><Data name="speed_difference_16"><value>-10.783594251444072</value></Data><Data name="speed_17"><value>2.7775649079724034</value></Data><Data name="speed_limit_17"><value>50</value></Data><Data name="speed_difference_17"><value>-47.222435092027595</value></Data><Data name="speed_18"><value>0.0</value></Data><Data name="speed_limit_18"><value>50</value></Data><Data name="speed_difference_18"><value>-50.0</value></Data><Data name="speed_19"><value>0.0</value></Data><Data name="speed_limit_19"><value>50</value></Data><Data name="speed_difference_19"><value>-50.0</value></Data><Data name="speed_20"><value>4.137508000253125</value></Data><Data name="speed_limit_20"><value>50</value></Data><Data name="speed_difference_20"><value>-45.86249199974687</value></Data><Data name="speed_21"><value>14.018078287941634</value></Data><Data name="speed_limit_21"><value>50</value></Data><Data name="speed_difference_21"><value>-35.981921712058366</value></Data><Data name="speed_22"><value>53.744715086707664</value></Data><Data name="speed_limit_22"><value>50</value></Data><Data name="speed_difference_22"><value>3.7447150867076644</value></Data><Data name="speed_23"><value>68.06817297672713</value></Data><Data name="speed_limit_23"><value>50</value></Data><Data name="speed_difference_23"><value>18.068172976727126</value></Data><Data name="speed_24"><value>61.53960136247213</value></Data><Data name="speed_limit_24"><value>50</value></Data><Data name="speed_difference_24"><value>11.539601362472133</value></Data><Data name="speed_25"><value>53.952721644542606</value></Data><Data name="speed_limit_25"><value>50</value></Data><Data name="speed_difference_25"><value>3.9527216445426063</value></Data><Data name="speed_26"><value>53.145519674285886</value></Data><Data name="speed_limit_26"><value>50</value></Data><Data name="speed_difference_26"><value>3.145519674285886</value></Data><Data name="speed_27"><value>48.32499824673326</value></Data><Data name="speed_limit_27"><value>50</value></Data><Data name="speed_difference_27"><value>-1.6750017532667414</value></Data><Data name="speed_28"><value>51.17910930249861</value></Data><Data name="speed_limit_28"><value>50</value></Data><Data name="speed_difference_28"><value>1.1791093024986097</value></Data><Data name="speed_29"><value>54.987551870648154</value></Data><Data name="speed_limit_29"><value>50</value></Data><Data name="speed_difference_29"><value>4.987551870648154</value></Data><Data name="speed_30"><value>52.12959331919662</value></Data><Data name="speed_limit_30"><value>50</value></Data><Data name="speed_difference_30"><value>2.1295933191966228</value></Data><Data name="speed_31"><value>55.807501191778144</value></Data><Data name="speed_limit_31"><value>50</value></Data><Data name="speed_difference_31"><value>5.807501191778144</value></Data><Data name="speed_32"><value>49.35903045594725</value></Data><Data name="speed_limit_32"><value>50</value></Data><Data name="speed_difference_32"><value>-0.6409695440527514</value></Data><Data name="speed_33"><value>32.66157048322144</value></Data><Data name="speed_limit_33"><value>50</value></Data><Data name="speed_difference_33"><value>-17.33842951677856</value></Data><Data name="speed_34"><value>4.144378383513508</value></Data><Data name="speed_limit_34"><value>50</value></Data><Data name="speed_difference_34"><value>-45.855621616486495</value></Data><Data name="speed_35"><value>4.8012280023520955</value></Data><Data name="speed_limit_35"><value>50</value></Data><Data name="speed_difference_35"><value>-45.1987719976479</value></Data><Data name="speed_36"><value>7.451082395461381</value></Data><Data name="speed_limit_36"><value>50</value></Data><Data name="speed_difference_36"><value>-42.548917604538616</value></Data><Data name="speed_37"><value>33.37497063007786</value></Data><Data name="speed_limit_37"><value>50</value></Data><Data name="speed_difference_37"><value>-16.62502936992214</value></Data><Data name="speed_38"><value>54.995971717557545</value></Data><Data name="speed_limit_38"><value>50</value></Data><Data name="speed_difference_38"><value>4.995971717557545</value></Data><Data name="speed_39"><value>56.113171811812066</value></Data><Data name="speed_limit_39"><value>50</value></Data><Data name="speed_difference_39"><value>6.113171811812066</value></Data><Data name="speed_40"><value>11.526401077497646</value></Data><Data name="speed_limit_40"><value>50</value></Data><Data name="speed_difference_40"><value>-38.473598922502354</value></Data><Data name="speed_41"><value>22.07513838957042</value></Data><Data name="speed_limit_41"><value>50</value></Data><Data name="speed_difference_41"><value>-27.92486161042958</value></Data><Data name="speed_42"><value>10.852750699838495</value></Data><Data name="speed_limit_42"><value>50</value></Data><Data name="speed_difference_42"><value>-39.147249300161505</value></Data><Data name="speed_43"><value>9.997871005554423</value></Data><Data name="speed_limit_43"><value>50</value></Data><Data name="speed_difference_43"><value>-40.00212899444558</value></Data><Data name="speed_44"><value>16.83746775666144</value></Data><Data name="speed_limit_44"><value>50</value></Data><Data name="speed_difference_44"><value>-33.16253224333856</value></Data><Data name="speed_45"><value>22.107684409228128</value></Data><Data name="speed_limit_45"><value>50</value></Data><Data name="speed_difference_45"><value>-27.892315590771872</value></Data><Data name="speed_46"><value>15.198367164983903</value></Data><Data name="speed_limit_46"><value>50</value></Data><Data name="speed_difference_46"><value>-34.80163283501609</value></Data><Data name="speed_47"><value>22.399702917964042</value></Data><Data name="speed_limit_47"><value>50</value></Data><Data name="speed_difference_47"><value>-27.600297082035958</value></Data><Data name="speed_48"><value>0.0</value></Data><Data name="speed_limit_48"><value>50</value></Data><Data name="speed_difference_48"><value>-50.0</value></Data><Data name="speed_49"><value>0.0</value></Data><Data name="speed_limit_49"><value>50</value></Data><Data name="speed_difference_49"><value>-50.0</value></Data><Data name="speed_50"><value>0.0</value></Data><Data name="speed_limit_50"><value>50</value></Data><Data name="speed_difference_50"><value>-50.0</value></Data><Data name="speed_51"><value>0.0</value></Data><Data name="speed_limit_51"><value>50</value></Data><Data name="speed_difference_51"><value>-50.0</value></Data><Data name="speed_52"><value>81.05574543955268</value></Data><Data name="speed_limit_52"><value>90</value></Data><Data name="speed_difference_52"><value>-8.94425456044732</value></Data><Data name="speed_53"><value>52.66936649426223</value></Data><Data name="speed_limit_53"><value>90</value></Data><Data name="speed_difference_53"><value>-37.33063350573777</value></Data><Data name="speed_54"><value>32.230778031690065</value></Data><Data name="speed_limit_54"><value>90</value></Data><Data name="speed_difference_54"><value>-57.769221968309935</value></Data><Data name="speed_55"><value>55.06012632479186</value></Data><Data name="speed_limit_55"><value>60</value></Data><Data name="speed_difference_55"><value>-4.9398736752081405</value></Data><Data name="speed_56"><value>55.839424193214235</value></Data><Data name="speed_limit_56"><value>60</value></Data><Data name="speed_difference_56"><value>-4.160575806785765</value></Data><Data name="speed_57"><value>54.84644606383687</value></Data><Data name="speed_limit_57"><value>60</value></Data><Data name="speed_difference_57"><value>-5.153553936163128</value></Data><Data name="speed_58"><value>60.757149456211415</value></Data><Data name="speed_limit_58"><value>60</value></Data><Data name="speed_difference_58"><value>0.7571494562114154</value></Data><Data name="speed_59"><value>72.4973859577445</value></Data><Data name="speed_limit_59"><value>60</value></Data><Data name="speed_difference_59"><value>12.497385957744498</value></Data><Data name="speed_60"><value>27.430727234545547</value></Data><Data name="speed_limit_60"><value>60</value></Data><Data name="speed_difference_60"><value>-32.56927276545446</value></Data><Data name="speed_61"><value>25.90333893313283</value></Data><Data name="speed_limit_61"><value>60</value></Data><Data name="speed_difference_61"><value>-34.09666106686717</value></Data><Data name="speed_62"><value>64.59964311779427</value></Data><Data name="speed_limit_62"><value>60</value></Data><Data name="speed_difference_62"><value>4.5996431177942725</value></Data><Data name="speed_63"><value>52.94942072172469</value></Data><Data name="speed_limit_63"><value>60</value></Data><Data name="speed_difference_63"><value>-7.050579278275308</value></Data><Data name="speed_64"><value>38.89444818874644</value></Data><Data name="speed_limit_64"><value>60</value></Data><Data name="speed_difference_64"><value>-21.105551811253562</value></Data><Data name="speed_65"><value>27.668844229774486</value></Data><Data name="speed_limit_65"><value>60</value></Data><Data name="speed_difference_65"><value>-32.331155770225514</value></Data><Data name="speed_66"><value>10.030676205470517</value></Data><Data name="speed_limit_66"><value>60</value></Data><Data name="speed_difference_66"><value>-49.96932379452949</value></Data><Data name="speed_67"><value>5.367470343587537</value></Data><Data name="speed_limit_67"><value>60</value></Data><Data name="speed_difference_67"><value>-54.632529656412466</value></Data><Data name="speed_68"><value>12.544482194147323</value></Data><Data name="speed_limit_68"><value>60</value></Data><Data name="speed_difference_68"><value>-47.45551780585268</value></Data><Data name="speed_69"><value>41.808424435949355</value></Data><Data name="speed_limit_69"><value>50</value></Data><Data name="speed_difference_69"><value>-8.191575564050645</value></Data><Data name="speed_70"><value>42.87496282865603</value></Data><Data name="speed_limit_70"><value>50</value></Data><Data name="speed_difference_70"><value>-7.125037171343969</value></Data><Data name="speed_71"><value>38.25017455892268</value></Data><Data name="speed_limit_71"><value>50</value></Data><Data name="speed_difference_71"><value>-11.74982544107732</value></Data><Data name="speed_72"><value>36.20253739127776</value></Data><Data name="speed_limit_72"><value>50</value></Data><Data name="speed_difference_72"><value>-13.797462608722242</value></Data><Data name="speed_73"><value>14.563746150161197</value></Data><Data name="speed_limit_73"><value>50</value></Data><Data name="speed_difference_73"><value>-35.436253849838806</value></Data><Data name="speed_74"><value>46.99840592467934</value></Data><Data name="speed_limit_74"><value>50</value></Data><Data name="speed_difference_74"><value>-3.0015940753206607</value></Data><Data name="speed_75"><value>40.105789387781144</value></Data><Data name="speed_limit_75"><value>50</value></Data><Data name="speed_difference_75"><value>-9.894210612218856</value></Data><Data name="speed_76"><value>1.7069170588441864</value></Data><Data name="speed_limit_76"><value>50</value></Data><Data name="speed_difference_76"><value>-48.29308294115582</value></Data><Data name="speed_77"><value>4.758135780485188</value></Data><Data name="speed_limit_77"><value>50</value></Data><Data name="speed_difference_77"><value>-45.24186421951481</value></Data><Data name="speed_78"><value>5.345899815859938</value></Data><Data name="speed_limit_78"><value>50</value></Data><Data name="speed_difference_78"><value>-44.65410018414006</value></Data><Data name="speed_79"><value>9.435898179222404</value></Data><Data name="speed_limit_79"><value>40</value></Data><Data name="speed_difference_79"><value>-30.564101820777594</value></Data><Data name="speed_80"><value>53.942897819967506</value></Data><Data name="speed_limit_80"><value>40</value></Data><Data name="speed_difference_80"><value>13.942897819967506</value></Data><Data name="speed_81"><value>0.0</value></Data><Data name="speed_limit_81"><value>40</value></Data><Data name="speed_difference_81"><value>-40.0</value></Data><Data name="speed_82"><value>0.0</value></Data><Data name="speed_limit_82"><value>40</value></Data><Data name="speed_difference_82"><value>-40.0</value></Data><Data name="speed_83"><value>54.44794557095742</value></Data><Data name="speed_limit_83"><value>40</value></Data><Data name="speed_difference_83"><value>14.447945570957422</value></Data><Data name="speed_84"><value>54.093254858719995</value></Data><Data name="speed_limit_84"><value>40</value></Data><Data name="speed_difference_84"><value>14.093254858719995</value></Data><Data name="speed_85"><value>53.95159764888613</value></Data><Data name="speed_limit_85"><value>40</value></Data><Data name="speed_difference_85"><value>13.951597648886128</value></Data><Data name="speed_86"><value>54.78327291206499</value></Data><Data name="speed_limit_86"><value>40</value></Data><Data name="speed_difference_86"><value>14.783272912064987</value></Data><Data name="speed_87"><value>51.79116464902697</value></Data><Data name="speed_limit_87"><value>40</value></Data><Data name="speed_difference_87"><value>11.791164649026967</value></Data><Data name="speed_88"><value>42.097637026097146</value></Data><Data name="speed_limit_88"><value>40</value></Data><Data name="speed_difference_88"><value>2.0976370260971464</value></Data><Data name="speed_89"><value>38.84348339518335</value></Data><Data name="speed_limit_89"><value>40</value></Data><Data name="speed_difference_89"><value>-1.1565166048166517</value></Data><Data name="speed_90"><value>40.32918882671889</value></Data><Data name="speed_limit_90"><value>40</value></Data><Data name="speed_difference_90"><value>0.32918882671889094</value></Data><Data name="speed_91"><value>35.13516062388357</value></Data><Data name="speed_limit_91"><value>40</value></Data><Data name="speed_difference_91"><value>-4.864839376116429</value></Data><Data name="speed_92"><value>25.540973668693866</value></Data><Data name="speed_limit_92"><value>40</value></Data><Data name="speed_difference_92"><value>-14.459026331306134</value></Data><Data name="speed_93"><value>5.429385429910272</value></Data><Data name="speed_limit_93"><value>40</value></Data><Data name="speed_difference_93"><value>-34.57061457008973</value></Data><Data name="speed_94"><value>4.188914195915015</value></Data><Data name="speed_limit_94"><value>40</value></Data><Data name="speed_difference_94"><value>-35.81108580408498</value></Data><Data name="speed_95"><value>7.637050825988927</value></Data><Data name="speed_limit_95"><value>40</value></Data><Data name="speed_difference_95"><value>-32.36294917401107</value></Data><Data name="speed_96"><value>44.75313092428723</value></Data><Data name="speed_limit_96"><value>40</value></Data><Data name="speed_difference_96"><value>4.753130924287227</value></Data><Data name="speed_97"><value>31.738624278128484</value></Data><Data name="speed_limit_97"><value>40</value></Data><Data name="speed_difference_97"><value>-8.261375721871516</value></Data><Data name="speed_98"><value>4.039807944239571</value></Data><Data name="speed_limit_98"><value>40</value></Data><Data name="speed_difference_98"><value>-35.96019205576043</value></Data><Data name="speed_99"><value>18.180196871048494</value></Data><Data name="speed_limit_99"><value>40</value></Data><Data name="speed_difference_99"><value>-21.819803128951506</value></Data><Data name="speed_100"><value>17.76854076968794</value></Data><Data name="speed_limit_100"><value>30</value></Data><Data name="speed_difference_100"><value>-12.231459230312058</value></Data><Data name="speed_101"><value>27.919234879845273</value></Data><Data name="speed_limit_101"><value>30</value></Data><Data name="speed_difference_101"><value>-2.0807651201547266</value></Data><Data name="speed_102"><value>18.503833522169263</value></Data><Data name="speed_limit_102"><value>30</value></Data><Data name="speed_difference_102"><value>-11.496166477830737</value></Data><Data name="speed_103"><value>5.876400822111109e-11</value></Data><Data name="speed_limit_103"><value>30</value></Data><Data name="speed_difference_103"><value>-29.999999999941235</value></Data><Data name="speed_104"><value>5.876400822111109e-11</value></Data><Data name="speed_limit_104"><value>30</value></Data><Data name="speed_difference_104"><value>-29.999999999941235</value></Data><Data name="speed_105"><value>5.876400822111109e-11</value></Data><Data name="speed_limit_105"><value>30</value></Data><Data name="speed_difference_105"><value>-29.999999999941235</value></Data><Data name="speed_106"><value>5.876400822111109e-11</value></Data><Data name="speed_limit_106"><value>30</value></Data><Data name="speed_difference_106"><value>-29.999999999941235</value></Data><Data name="speed_107"><value>24.702203114429835</value></Data><Data name="speed_limit_107"><value>30</value></Data><Data name="speed_difference_107"><value>-5.297796885570165</value></Data><Data name="speed_108"><value>25.867828661978834</value></Data><Data name="speed_limit_108"><value>30</value></Data><Data name="speed_difference_108"><value>-4.132171338021166</value></Data><Data name="speed_109"><value>26.577543752628085</value></Data><Data name="speed_limit_109"><value>30</value></Data><Data name="speed_difference_109"><value>-3.4224562473719153</value></Data><Data name="speed_110"><value>20.7266111533854</value></Data><Data name="speed_limit_110"><value>90</value></Data><Data name="speed_difference_110"><value>-69.27338884661461</value></Data><Data name="speed_111"><value>39.95616371724858</value></Data><Data name="speed_limit_111"><value>90</value></Data><Data name="speed_difference_111"><value>-50.04383628275142</value></Data><Data name="speed_112"><value>45.39693189921693</value></Data><Data name="speed_limit_112"><value>90</value></Data><Data name="speed_difference_112"><value>-44.60306810078307</value></Data><Data name="speed_113"><value>0.0</value></Data><Data name="speed_limit_113"><value>90</value></Data><Data name="speed_difference_113"><value>-90.0</value></Data><Data name="speed_114"><value>0.0</value></Data><Data name="speed_limit_114"><value>90</value></Data><Data name="speed_difference_114"><value>-90.0</value></Data><Data name="speed_115"><value>41.46045337024474</value></Data><Data name="speed_limit_115"><value>90</value></Data><Data name="speed_difference_115"><value>-48.53954662975526</value></Data><Data name="speed_116"><value>40.3332850412746</value></Data><Data name="speed_limit_116"><value>90</value></Data><Data name="speed_difference_116"><value>-49.6667149587254</value></Data><Data name="speed_117"><value>16.92656186887134</value></Data><Data name="speed_limit_117"><value>90</value></Data><Data name="speed_difference_117"><value>-73.07343813112865</value></Data><Data name="speed_118"><value>4.002161651075857</value></Data><Data name="speed_limit_118"><value>90</value></Data><Data name="speed_difference_118"><value>-85.99783834892415</value></Data><Data name="speed_119"><value>19.356446502416173</value></Data><Data name="speed_limit_119"><value>90</value></Data><Data name="speed_difference_119"><value>-70.64355349758382</value></Data><Data name="speed_120"><value>9.53406226092097</value></Data><Data name="speed_limit_120"><value>40</value></Data><Data name="speed_difference_120"><value>-30.46593773907903</value></Data><Data name="speed_121"><value>29.21854864352595</value></Data><Data name="speed_limit_121"><value>40</value></Data><Data name="speed_difference_121"><value>-10.78145135647405</value></Data><Data name="speed_122"><value>40.75884599117645</value></Data><Data name="speed_limit_122"><value>40</value></Data><Data name="speed_difference_122"><value>0.7588459911764502</value></Data><Data name="speed_123"><value>42.99019310146383</value></Data><Data name="speed_limit_123"><value>40</value></Data><Data name="speed_difference_123"><value>2.9901931014638308</value></Data><Data name="speed_124"><value>46.996467212071906</value></Data><Data name="speed_limit_124"><value>40</value></Data><Data name="speed_difference_124"><value>6.996467212071906</value></Data><Data name="speed_125"><value>47.8441251343433</value></Data><Data name="speed_limit_125"><value>40</value></Data><Data name="speed_difference_125"><value>7.844125134343301</value></Data><Data name="speed_126"><value>47.26666265793164</value></Data><Data name="speed_limit_126"><value>40</value></Data><Data name="speed_difference_126"><value>7.26666265793164</value></Data><Data name="speed_127"><value>10.893203228373087</value></Data><Data name="speed_limit_127"><value>40</value></Data><Data name="speed_difference_127"><value>-29.10679677162691</value></Data><Data name="speed_128"><value>4.670467638345816</value></Data><Data name="speed_limit_128"><value>40</value></Data><Data name="speed_difference_128"><value>-35.32953236165419</value></Data><Data name="speed_129"><value>6.05542720518643</value></Data><Data name="speed_limit_129"><value>40</value></Data><Data name="speed_difference_129"><value>-33.94457279481357</value></Data><Data name="speed_130"><value>38.05110334130245</value></Data><Data name="speed_limit_130"><value>100</value></Data><Data name="speed_difference_130"><value>-61.94889665869755</value></Data><Data name="speed_131"><value>39.38918166763314</value></Data><Data name="speed_limit_131"><value>100</value></Data><Data name="speed_difference_131"><value>-60.61081833236686</value></Data><Data name="speed_132"><value>34.699890879834406</value></Data><Data name="speed_limit_132"><value>100</value></Data><Data name="speed_difference_132"><value>-65.30010912016559</value></Data><Data name="speed_133"><value>27.943674023870667</value></Data><Data name="speed_limit_133"><value>100</value></Data><Data name="speed_difference_133"><value>-72.05632597612933</value></Data><Data name="speed_134"><value>16.09638451906504</value></Data><Data name="speed_limit_134"><value>100</value></Data><Data name="speed_difference_134"><value>-83.90361548093496</value></Data><Data name="speed_135"><value>5.408992692915507</value></Data><Data name="speed_limit_135"><value>100</value></Data><Data name="speed_difference_135"><value>-94.5910073070845</value></Data><Data name="speed_136"><value>6.639242661145483</value></Data><Data name="speed_limit_136"><value>100</value></Data><Data name="speed_difference_136"><value>-93.36075733885451</value></Data><Data name="speed_137"><value>22.242460176153383</value></Data><Data name="speed_limit_137"><value>100</value></Data><Data name="speed_difference_137"><value>-77.75753982384661</value></Data><Data name="speed_138"><value>37.472160956616236</value></Data><Data name="speed_limit_138"><value>100</value></Data><Data name="speed_difference_138"><value>-62.527839043383764</value></Data><Data name="speed_139"><value>24.67717748174527</value></Data><Data name="speed_limit_139"><value>100</value></Data><Data name="speed_difference_139"><value>-75.32282251825472</value></Data><Data name="speed_140"><value>34.74451232581049</value></Data><Data name="speed_limit_140"><value>50</value></Data><Data name="speed_difference_140"><value>-15.25548767418951</value></Data><Data name="speed_141"><value>46.999442044693204</value></Data><Data name="speed_limit_141"><value>50</value></Data><Data name="speed_difference_141"><value>-3.000557955306796</value></Data><Data name="speed_142"><value>18.746513554878522</value></Data><Data name="speed_limit_142"><value>50</value></Data><Data name="speed_difference_142"><value>-31.253486445121478</value></Data><Data name="speed_143"><value>6.842274660199883</value></Data><Data name="speed_limit_143"><value>50</value></Data><Data name="speed_difference_143"><value>-43.157725339800116</value></Data><Data name="speed_144"><value>0.0</value></Data><Data name="speed_limit_144"><value>50</value></Data><Data name="speed_difference_144"><value>-50.0</value></Data><Data name="speed_145"><value>11.68755478518481</value></Data><Data name="speed_limit_145"><value>90</value></Data><Data name="speed_difference_145"><value>-78.31244521481518</value></Data><Data name="speed_146"><value>0.0</value></Data><Data name="speed_limit_146"><value>90</value></Data><Data name="speed_difference_146"><value>-90.0</value></Data><Data name="speed_147"><value>24.768380283216672</value></Data><Data name="speed_limit_147"><value>90</value></Data><Data name="speed_difference_147"><value>-65.23161971678333</value></Data><Data name="speed_148"><value>7.549789559905751</value></Data><Data name="speed_limit_148"><value>90</value></Data><Data name="speed_difference_148"><value>-82.45021044009425</value></Data><Data name="speed_149"><value>16.229846881777934</value></Data><Data name="speed_limit_149"><value>90</value></Data><Data name="speed_difference_149"><value>-73.77015311822207</value></Data><Data name="speed_150"><value>21.347944894392416</value></Data><Data name="speed_limit_150"><value>90</value></Data><Data name="speed_difference_150"><value>-68.65205510560759</value></Data><Data name="speed_151"><value>3.0219809697265796</value></Data><Data name="speed_limit_151"><value>90</value></Data><Data name="speed_difference_151"><value>-86.97801903027342</value></Data><Data name="speed_152"><value>5.332085403742833</value></Data><Data name="speed_limit_152"><value>50</value></Data><Data name="speed_difference_152"><value>-44.66791459625717</value></Data><Data name="speed_153"><value>8.96875986259362</value></Data><Data name="speed_limit_153"><value>50</value></Data><Data name="speed_difference_153"><value>-41.03124013740638</value></Data><Data name="speed_154"><value>8.600418222005848</value></Data><Data name="speed_limit_154"><value>50</value></Data><Data name="speed_difference_154"><value>-41.39958177799415</value></Data><Data name="speed_155"><value>3.0551675120805646</value></Data><Data name="speed_limit_155"><value>50</value></Data><Data name="speed_difference_155"><value>-46.944832487919435</value></Data><Data name="speed_156"><value>4.611490691898553</value></Data><Data name="speed_limit_156"><value>50</value></Data><Data name="speed_difference_156"><value>-45.38850930810145</value></Data><Data name="speed_157"><value>40.68910948151359</value></Data><Data name="speed_limit_157"><value>50</value></Data><Data name="speed_difference_157"><value>-9.31089051848641</value></Data><Data name="speed_158"><value>47.653614117548514</value></Data><Data name="speed_limit_158"><value>50</value></Data><Data name="speed_difference_158"><value>-2.346385882451486</value></Data><Data name="speed_159"><value>49.17840163487513</value></Data><Data name="speed_limit_159"><value>50</value></Data><Data name="speed_difference_159"><value>-0.8215983651248706</value></Data><Data name="speed_160"><value>43.220677063471044</value></Data><Data name="speed_limit_160"><value>50</value></Data><Data name="speed_difference_160"><value>-6.779322936528956</value></Data><Data name="speed_161"><value>51.511543842461</value></Data><Data name="speed_limit_161"><value>50</value></Data><Data name="speed_difference_161"><value>1.511543842461002</value></Data><Data name="speed_162"><value>49.22383538724025</value></Data><Data name="speed_limit_162"><value>50</value></Data><Data name="speed_difference_162"><value>-0.7761646127597501</value></Data><Data name="speed_163"><value>39.957337980868914</value></Data><Data name="speed_limit_163"><value>50</value></Data><Data name="speed_difference_163"><value>-10.042662019131086</value></Data><Data name="speed_164"><value>12.90187499963706</value></Data><Data name="speed_limit_164"><value>50</value></Data><Data name="speed_difference_164"><value>-37.09812500036294</value></Data><Data name="speed_165"><value>4.649570285662429</value></Data><Data name="speed_limit_165"><value>50</value></Data><Data name="speed_difference_165"><value>-45.35042971433757</value></Data><Data name="speed_166"><value>27.784109538091954</value></Data><Data name="speed_limit_166"><value>90</value></Data><Data name="speed_difference_166"><value>-62.215890461908046</value></Data><Data name="speed_167"><value>11.643711071002409</value></Data><Data name="speed_limit_167"><value>90</value></Data><Data name="speed_difference_167"><value>-78.35628892899759</value></Data><Data name="speed_168"><value>16.228184776713725</value></Data><Data name="speed_limit_168"><value>90</value></Data><Data name="speed_difference_168"><value>-73.77181522328627</value></Data><Data name="speed_169"><value>2.058014526914591</value></Data><Data name="speed_limit_169"><value>90</value></Data><Data name="speed_difference_169"><value>-87.94198547308541</value></Data><Data name="speed_170"><value>3.053333816080103</value></Data><Data name="speed_limit_170"><value>90</value></Data><Data name="speed_difference_170"><value>-86.9466661839199</value></Data><Data name="speed_171"><value>18.446820626231084</value></Data><Data name="speed_limit_171"><value>90</value></Data><Data name="speed_difference_171"><value>-71.55317937376891</value></Data><Data name="speed_172"><value>2.9845336663930184</value></Data><Data name="speed_limit_172"><value>90</value></Data><Data name="speed_difference_172"><value>-87.01546633360698</value></Data><Data name="speed_173"><value>11.414504954068528</value></Data><Data name="speed_limit_173"><value>90</value></Data><Data name="speed_difference_173"><value>-78.58549504593147</value></Data><Data name="speed_174"><value>2.0897441721332575</value></Data><Data name="speed_limit_174"><value>90</value></Data><Data name="speed_difference_174"><value>-87.91025582786675</value></Data><Data name="speed_175"><value>10.501088328710464</value></Data><Data name="speed_limit_175"><value>90</value></Data><Data name="speed_difference_175"><value>-79.49891167128953</value></Data><Data name="speed_176"><value>6.796355185053274e-12</value></Data><Data name="speed_limit_176"><value>90</value></Data><Data name="speed_difference_176"><value>-89.99999999999321</value></Data><Data name="speed_177"><value>6.796355185053274e-12</value></Data><Data name="speed_limit_177"><value>90</value></Data><Data name="speed_difference_177"><value>-89.99999999999321</value></Data><Data name="speed_178"><value>11.4626397623152</value></Data><Data name="speed_limit_178"><value>90</value></Data><Data name="speed_difference_178"><value>-78.5373602376848</value></Data><Data name="speed_179"><value>1.8800039399961828</value></Data><Data name="speed_limit_179"><value>90</value></Data><Data name="speed_difference_179"><value>-88.11999606000381</value></Data><Data name="speed_180"><value>6.020676470719373</value></Data><Data name="speed_limit_180"><value>50</value></Data><Data name="speed_difference_180"><value>-43.97932352928063</value></Data><Data name="speed_181"><value>3.449663050329074</value></Data><Data name="speed_limit_181"><value>50</value></Data><Data name="speed_difference_181"><value>-46.55033694967093</value></Data><Data name="speed_182"><value>0.0</value></Data><Data name="speed_limit_182"><value>50</value></Data><Data name="speed_difference_182"><value>-50.0</value></Data><Data name="speed_183"><value>0.0</value></Data><Data name="speed_limit_183"><value>50</value></Data><Data name="speed_difference_183"><value>-50.0</value></Data><Data name="speed_184"><value>0.0</value></Data><Data name="speed_limit_184"><value>50</value></Data><Data name="speed_difference_184"><value>-50.0</value></Data><Data name="speed_185"><value>0.0</value></Data><Data name="speed_limit_185"><value>50</value></Data><Data name="speed_difference_185"><value>-50.0</value></Data><Data name="speed_186"><value>7.50165659411181</value></Data><Data name="speed_limit_186"><value>50</value></Data><Data name="speed_difference_186"><value>-42.49834340588819</value></Data><Data name="speed_187"><value>3.924944635901386</value></Data><Data name="speed_limit_187"><value>50</value></Data><Data name="speed_difference_187"><value>-46.07505536409862</value></Data><Data name="speed_188"><value>0.0</value></Data><Data name="speed_limit_188"><value>50</value></Data><Data name="speed_difference_188"><value>-50.0</value></Data><Data name="speed_189"><value>0.0</value></Data><Data name="speed_limit_189"><value>50</value></Data><Data name="speed_difference_189"><value>-50.0</value></Data><Data name="speed_190"><value>17.577366421449135</value></Data><Data name="speed_limit_190"><value>50</value></Data><Data name="speed_difference_190"><value>-32.422633578550865</value></Data><Data name="speed_191"><value>2.39166658754337</value></Data><Data name="speed_limit_191"><value>50</value></Data><Data name="speed_difference_191"><value>-47.60833341245663</value></Data><Data name="speed_192"><value>9.561635457834527</value></Data><Data name="speed_limit_192"><value>50</value></Data><Data name="speed_difference_192"><value>-40.43836454216547</value></Data><Data name="speed_193"><value>16.036254034016352</value></Data><Data name="speed_limit_193"><value>50</value></Data><Data name="speed_difference_193"><value>-33.96374596598365</value></Data><Data name="speed_194"><value>8.302995897939137</value></Data><Data name="speed_limit_194"><value>50</value></Data><Data name="speed_difference_194"><value>-41.69700410206086</value></Data><Data name="speed_195"><value>3.531814034688844</value></Data><Data name="speed_limit_195"><value>50</value></Data><Data name="speed_difference_195"><value>-46.46818596531116</value></Data><Data name="speed_196"><value>3.994625176536094</value></Data><Data name="speed_limit_196"><value>50</value></Data><Data name="speed_difference_196"><value>-46.0053748234639</value></Data><Data name="speed_197"><value>9.318356392714861</value></Data><Data name="speed_limit_197"><value>50</value></Data><Data name="speed_difference_197"><value>-40.68164360728514</value></Data><Data name="speed_198"><value>0.0</value></Data><Data name="speed_limit_198"><value>50</value></Data><Data name="speed_difference_198"><value>-50.0</value></Data><Data name="speed_199"><value>0.0</value></Data><Data name="speed_limit_199"><value>50</value></Data><Data name="speed_difference_199"><value>-50.0</value></Data><Data name="speed_200"><value>0.0</value></Data><Data name="speed_limit_200"><value>50</value></Data><Data name="speed_difference_200"><value>-50.0</value></Data><Data name="speed_201"><value>0.0</value></Data><Data name="speed_limit_201"><value>50</value></Data><Data name="speed_difference_201"><value>-50.0</value></Data><Data name="speed_202"><value>14.654815974974264</value></Data><Data name="speed_limit_202"><value>50</value></Data><Data name="speed_difference_202"><value>-35.34518402502574</value></Data><Data name="speed_203"><value>5.734106621484056</value></Data><Data name="speed_limit_203"><value>50</value></Data><Data name="speed_difference_203"><value>-44.26589337851594</value></Data><Data name="speed_204"><value>5.871463616289006</value></Data><Data name="speed_limit_204"><value>50</value></Data><Data name="speed_difference_204"><value>-44.128536383710994</value></Data><Data name="speed_205"><value>5.620634781397213</value></Data><Data name="speed_limit_205"><value>50</value></Data><Data name="speed_difference_205"><value>-44.379365218602786</value></Data><Data name="speed_206"><value>13.07362910048765</value></Data><Data name="speed_limit_206"><value>50</value></Data><Data name="speed_difference_206"><value>-36.92637089951235</value></Data><Data name="speed_207"><value>2.761911788960898</value></Data><Data name="speed_limit_207"><value>50</value></Data><Data name="speed_difference_207"><value>-47.2380882110391</value></Data><Data name="speed_208"><value>7.586947874097366</value></Data><Data name="speed_limit_208"><value>50</value></Data><Data name="speed_difference_208"><value>-42.41305212590263</value></Data><Data name="speed_209"><value>11.414808366279903</value></Data><Data name="speed_limit_209"><value>50</value></Data><Data name="speed_difference_209"><value>-38.5851916337201</value></Data><Data name="speed_210"><value>0.0</value></Data><Data name="speed_limit_210"><value>50</value></Data><Data name="speed_difference_210"><value>-50.0</value></Data><Data name="speed_211"><value>0.0</value></Data><Data name="speed_limit_211"><value>50</value></Data><Data name="speed_difference_211"><value>-50.0</value></Data><Data name="speed_212"><value>16.101001393188653</value></Data><Data name="speed_limit_212"><value>50</value></Data><Data name="speed_difference_212"><value>-33.89899860681135</value></Data><Data name="speed_213"><value>4.123453838696248</value></Data><Data name="speed_limit_213"><value>50</value></Data><Data name="speed_difference_213"><value>-45.87654616130375</value></Data><Data name="speed_214"><value>2.266827721339034</value></Data><Data name="speed_limit_214"><value>50</value></Data><Data name="speed_difference_214"><value>-47.733172278660966</value></Data><Data name="speed_215"><value>8.356093644717571</value></Data><Data name="speed_limit_215"><value>50</value></Data><Data name="speed_difference_215"><value>-41.643906355282425</value></Data><Data name="speed_216"><value>9.239287416383949</value></Data><Data name="speed_limit_216"><value>50</value></Data><Data name="speed_difference_216"><value>-40.760712583616055</value></Data><Data name="speed_217"><value>17.97453817754887</value></Data><Data name="speed_limit_217"><value>50</value></Data><Data name="speed_difference_217"><value>-32.025461822451135</value></Data><Data name="speed_218"><value>2.331433181013433</value></Data><Data name="speed_limit_218"><value>50</value></Data><Data name="speed_difference_218"><value>-47.66856681898657</value></Data><Data name="speed_219"><value>12.638086334922834</value></Data><Data name="speed_limit_219"><value>50</value></Data><Data name="speed_difference_219"><value>-37.36191366507717</value></Data><Data name="speed_220"><value>4.2630406533318155</value></Data><Data name="speed_limit_220"><value>90</value></Data><Data name="speed_difference_220"><value>-85.73695934666819</value></Data><Data name="speed_221"><value>2.9610351476335546</value></Data><Data name="speed_limit_221"><value>90</value></Data><Data name="speed_difference_221"><value>-87.03896485236645</value></Data><Data name="speed_222"><value>4.603301544898114</value></Data><Data name="speed_limit_222"><value>90</value></Data><Data name="speed_difference_222"><value>-85.39669845510188</value></Data><Data name="speed_223"><value>3.914123153712879e-11</value></Data><Data name="speed_limit_223"><value>90</value></Data><Data name="speed_difference_223"><value>-89.99999999996086</value></Data><Data name="speed_224"><value>2.3004573540370257</value></Data><Data name="speed_limit_224"><value>90</value></Data><Data name="speed_difference_224"><value>-87.69954264596298</value></Data><Data name="speed_225"><value>0.0</value></Data><Data name="speed_limit_225"><value>90</value></Data><Data name="speed_difference_225"><value>-90.0</value></Data><Data name="speed_226"><value>2.6952178974316876</value></Data><Data name="speed_limit_226"><value>90</value></Data><Data name="speed_difference_226"><value>-87.30478210256831</value></Data><Data name="speed_227"><value>31.676452388539087</value></Data><Data name="speed_limit_227"><value>90</value></Data><Data name="speed_difference_227"><value>-58.32354761146091</value></Data><Data name="speed_228"><value>10.639969142500341</value></Data><Data name="speed_limit_228"><value>50</value></Data><Data name="speed_difference_228"><value>-39.36003085749966</value></Data><Data name="speed_229"><value>5.688516575019164</value></Data><Data name="speed_limit_229"><value>50</value></Data><Data name="speed_difference_229"><value>-44.311483424980835</value></Data><Data name="speed_230"><value>14.873428535403214</value></Data><Data name="speed_limit_230"><value>50</value></Data><Data name="speed_difference_230"><value>-35.126571464596786</value></Data><Data name="speed_231"><value>17.44517875351807</value></Data><Data name="speed_limit_231"><value>50</value></Data><Data name="speed_difference_231"><value>-32.55482124648193</value></Data><Data name="speed_232"><value>53.05703304654625</value></Data><Data name="speed_limit_232"><value>50</value></Data><Data name="speed_difference_232"><value>3.057033046546252</value></Data><Data name="speed_233"><value>53.62152916434699</value></Data><Data name="speed_limit_233"><value>50</value></Data><Data name="speed_difference_233"><value>3.6215291643469882</value></Data><Data name="speed_234"><value>42.90252604556135</value></Data><Data name="speed_limit_234"><value>50</value></Data><Data name="speed_difference_234"><value>-7.097473954438648</value></Data><Data name="speed_235"><value>50.16512810057762</value></Data><Data name="speed_limit_235"><value>50</value></Data><Data name="speed_difference_235"><value>0.1651281005776184</value></Data><Data name="speed_236"><value>46.062372162807975</value></Data><Data name="speed_limit_236"><value>50</value></Data><Data name="speed_difference_236"><value>-3.937627837192025</value></Data><Data name="speed_237"><value>28.50362186896144</value></Data><Data name="speed_limit_237"><value>50</value></Data><Data name="speed_difference_237"><value>-21.49637813103856</value></Data><Data name="speed_238"><value>4.825772838569517</value></Data><Data name="speed_limit_238"><value>90</value></Data><Data name="speed_difference_238"><value>-85.17422716143048</value></Data><Data name="speed_239"><value>4.8271481341212645</value></Data><Data name="speed_limit_239"><value>50</value></Data><Data name="speed_difference_239"><value>-45.172851865878734</value></Data><Data name="speed_240"><value>18.100478619117514</value></Data><Data name="speed_limit_240"><value>100</value></Data><Data name="speed_difference_240"><value>-81.89952138088249</value></Data><Data name="speed_241"><value>5.576165272545824</value></Data><Data name="speed_limit_241"><value>100</value></Data><Data name="speed_difference_241"><value>-94.42383472745418</value></Data><Data name="speed_242"><value>21.111133180060985</value></Data><Data name="speed_limit_242"><value>100</value></Data><Data name="speed_difference_242"><value>-78.88886681993901</value></Data><Data name="speed_243"><value>31.637465123028246</value></Data><Data name="speed_limit_243"><value>100</value></Data><Data name="speed_difference_243"><value>-68.36253487697175</value></Data><Data name="speed_244"><value>41.30728513280951</value></Data><Data name="speed_limit_244"><value>100</value></Data><Data name="speed_difference_244"><value>-58.69271486719049</value></Data><Data name="speed_245"><value>16.468861630152837</value></Data><Data name="speed_limit_245"><value>100</value></Data><Data name="speed_difference_245"><value>-83.53113836984716</value></Data><Data name="speed_246"><value>45.16771268950514</value></Data><Data name="speed_limit_246"><value>100</value></Data><Data name="speed_difference_246"><value>-54.83228731049486</value></Data><Data name="speed_247"><value>24.827609895445022</value></Data><Data name="speed_limit_247"><value>100</value></Data><Data name="speed_difference_247"><value>-75.17239010455498</value></Data><Data name="speed_248"><value>38.29808905022374</value></Data><Data name="speed_limit_248"><value>100</value></Data><Data name="speed_difference_248"><value>-61.70191094977626</value></Data><Data name="speed_249"><value>37.25340613743455</value></Data><Data name="speed_limit_249"><value>100</value></Data><Data name="speed_difference_249"><value>-62.74659386256545</value></Data><Data name="speed_250"><value>34.5434060946262</value></Data><Data name="speed_limit_250"><value>40</value></Data><Data name="speed_difference_250"><value>-5.456593905373801</value></Data><Data name="speed_251"><value>41.85666488309726</value></Data><Data name="speed_limit_251"><value>40</value></Data><Data name="speed_difference_251"><value>1.8566648830972596</value></Data><Data name="speed_252"><value>41.03153209211251</value></Data><Data name="speed_limit_252"><value>40</value></Data><Data name="speed_difference_252"><value>1.0315320921125135</value></Data><Data name="speed_253"><value>40.498863917176685</value></Data><Data name="speed_limit_253"><value>40</value></Data><Data name="speed_difference_253"><value>0.4988639171766849</value></Data><Data name="speed_254"><value>45.28667075594064</value></Data><Data name="speed_limit_254"><value>40</value></Data><Data name="speed_difference_254"><value>5.286670755940641</value></Data><Data name="speed_255"><value>46.64910985044057</value></Data><Data name="speed_limit_255"><value>40</value></Data><Data name="speed_difference_255"><value>6.649109850440567</value></Data><Data name="speed_256"><value>31.275064100745574</value></Data><Data name="speed_limit_256"><value>40</value></Data><Data name="speed_difference_256"><value>-8.724935899254426</value></Data><Data name="speed_257"><value>37.89599071871545</value></Data><Data name="speed_limit_257"><value>40</value></Data><Data name="speed_difference_257"><value>-2.1040092812845472</value></Data><Data name="speed_258"><value>54.47947986063638</value></Data><Data name="speed_limit_258"><value>40</value></Data><Data name="speed_difference_258"><value>14.479479860636381</value></Data><Data name="speed_259"><value>0.0</value></Data><Data name="speed_limit_259"><value>40</value></Data><Data name="speed_difference_259"><value>-40.0</value></Data><Data name="speed_260"><value>0.0</value></Data><Data name="speed_limit_260"><value>40</value></Data><Data name="speed_difference_260"><value>-40.0</value></Data><Data name="speed_261"><value>53.158045352367274</value></Data><Data name="speed_limit_261"><value>40</value></Data><Data name="speed_difference_261"><value>13.158045352367274</value></Data><Data name="speed_262"><value>48.72852264652212</value></Data><Data name="speed_limit_262"><value>40</value></Data><Data name="speed_difference_262"><value>8.728522646522123</value></Data><Data name="speed_263"><value>49.78670035088261</value></Data><Data name="speed_limit_263"><value>40</value></Data><Data name="speed_difference_263"><value>9.786700350882612</value></Data><Data name="speed_264"><value>29.437999041983517</value></Data><Data name="speed_limit_264"><value>40</value></Data><Data name="speed_difference_264"><value>-10.562000958016483</value></Data><Data name="speed_265"><value>10.641873273786816</value></Data><Data name="speed_limit_265"><value>40</value></Data><Data name="speed_difference_265"><value>-29.358126726213186</value></Data><Data name="speed_266"><value>41.414406340863806</value></Data><Data name="speed_limit_266"><value>40</value></Data><Data name="speed_difference_266"><value>1.4144063408638061</value></Data><Data name="speed_267"><value>50.013352972210036</value></Data><Data name="speed_limit_267"><value>40</value></Data><Data name="speed_difference_267"><value>10.013352972210036</value></Data><Data name="speed_268"><value>50.00851371202413</value></Data><Data name="speed_limit_268"><value>40</value></Data><Data name="speed_difference_268"><value>10.008513712024133</value></Data><Data name="speed_269"><value>50.78643552219342</value></Data><Data name="speed_limit_269"><value>40</value></Data><Data name="speed_difference_269"><value>10.786435522193422</value></Data><Data name="speed_270"><value>53.17523313170046</value></Data><Data name="speed_limit_270"><value>40</value></Data><Data name="speed_difference_270"><value>13.175233131700459</value></Data><Data name="speed_271"><value>50.15057660515896</value></Data><Data name="speed_limit_271"><value>40</value></Data><Data name="speed_difference_271"><value>10.15057660515896</value></Data><Data name="speed_272"><value>41.80448831203887</value></Data><Data name="speed_limit_272"><value>40</value></Data><Data name="speed_difference_272"><value>1.8044883120388704</value></Data><Data name="speed_273"><value>34.80965691791316</value></Data><Data name="speed_limit_273"><value>50</value></Data><Data name="speed_difference_273"><value>-15.19034308208684</value></Data><Data name="speed_274"><value>47.27997538760162</value></Data><Data name="speed_limit_274"><value>50</value></Data><Data name="speed_difference_274"><value>-2.720024612398383</value></Data><Data name="speed_275"><value>44.36044437651163</value></Data><Data name="speed_limit_275"><value>50</value></Data><Data name="speed_difference_275"><value>-5.63955562348837</value></Data><Data name="speed_276"><value>47.794893385637096</value></Data><Data name="speed_limit_276"><value>50</value></Data><Data name="speed_difference_276"><value>-2.2051066143629043</value></Data><Data name="speed_277"><value>49.631468041994026</value></Data><Data name="speed_limit_277"><value>50</value></Data><Data name="speed_difference_277"><value>-0.36853195800597405</value></Data><Data name="speed_278"><value>49.38304480948801</value></Data><Data name="speed_limit_278"><value>50</value></Data><Data name="speed_difference_278"><value>-0.6169551905119874</value></Data><Data name="speed_279"><value>49.34273105232098</value></Data><Data name="speed_limit_279"><value>50</value></Data><Data name="speed_difference_279"><value>-0.6572689476790217</value></Data><Data name="speed_280"><value>44.79773504863383</value></Data><Data name="speed_limit_280"><value>60</value></Data><Data name="speed_difference_280"><value>-15.202264951366168</value></Data><Data name="speed_281"><value>47.58469205443305</value></Data><Data name="speed_limit_281"><value>60</value></Data><Data name="speed_difference_281"><value>-12.415307945566951</value></Data><Data name="speed_282"><value>50.16916641640316</value></Data><Data name="speed_limit_282"><value>60</value></Data><Data name="speed_difference_282"><value>-9.830833583596842</value></Data><Data name="speed_283"><value>49.13417557594489</value></Data><Data name="speed_limit_283"><value>60</value></Data><Data name="speed_difference_283"><value>-10.865824424055113</value></Data><Data name="speed_284"><value>47.79731509650866</value></Data><Data name="speed_limit_284"><value>60</value></Data><Data name="speed_difference_284"><value>-12.202684903491338</value></Data><Data name="speed_285"><value>47.0196078535382</value></Data><Data name="speed_limit_285"><value>60</value></Data><Data name="speed_difference_285"><value>-12.980392146461803</value></Data><Data name="speed_286"><value>0.0</value></Data><Data name="speed_limit_286"><value>60</value></Data><Data name="speed_difference_286"><value>-60.0</value></Data><Data name="speed_287"><value>64.47646757138892</value></Data><Data name="speed_limit_287"><value>60</value></Data><Data name="speed_difference_287"><value>4.476467571388923</value></Data><Data name="speed_288"><value>0.0</value></Data><Data name="speed_limit_288"><value>60</value></Data><Data name="speed_difference_288"><value>-60.0</value></Data><Data name="speed_289"><value>79.08380563964153</value></Data><Data name="speed_limit_289"><value>60</value></Data><Data name="speed_difference_289"><value>19.083805639641525</value></Data><Data name="speed_290"><value>75.47379351062264</value></Data><Data name="speed_limit_290"><value>60</value></Data><Data name="speed_difference_290"><value>15.473793510622642</value></Data><Data name="speed_291"><value>62.48387546057506</value></Data><Data name="speed_limit_291"><value>60</value></Data><Data name="speed_difference_291"><value>2.4838754605750566</value></Data><Data name="speed_292"><value>41.86865660704593</value></Data><Data name="speed_limit_292"><value>90</value></Data><Data name="speed_difference_292"><value>-48.13134339295407</value></Data><Data name="speed_293"><value>46.118391765539755</value></Data><Data name="speed_limit_293"><value>90</value></Data><Data name="speed_difference_293"><value>-43.881608234460245</value></Data><Data name="speed_294"><value>28.454548951293987</value></Data><Data name="speed_limit_294"><value>90</value></Data><Data name="speed_difference_294"><value>-61.54545104870601</value></Data><Data name="speed_295"><value>5.363640914768628</value></Data><Data name="speed_limit_295"><value>90</value></Data><Data name="speed_difference_295"><value>-84.63635908523138</value></Data><Data name="speed_296"><value>40.966350185760426</value></Data><Data name="speed_limit_296"><value>90</value></Data><Data name="speed_difference_296"><value>-49.033649814239574</value></Data><Data name="speed_297"><value>20.260945669901464</value></Data><Data name="speed_limit_297"><value>50</value></Data><Data name="speed_difference_297"><value>-29.739054330098536</value></Data><Data name="speed_298"><value>10.769641995053114</value></Data><Data name="speed_limit_298"><value>50</value></Data><Data name="speed_difference_298"><value>-39.230358004946886</value></Data><Data name="speed_299"><value>54.12058253699226</value></Data><Data name="speed_limit_299"><value>50</value></Data><Data name="speed_difference_299"><value>4.120582536992259</value></Data><Data name="speed_300"><value>47.7885812060301</value></Data><Data name="speed_limit_300"><value>90</value></Data><Data name="speed_difference_300"><value>-42.2114187939699</value></Data><Data name="speed_301"><value>29.48092681104809</value></Data><Data name="speed_limit_301"><value>90</value></Data><Data name="speed_difference_301"><value>-60.51907318895191</value></Data><Data name="speed_302"><value>27.626092695198803</value></Data><Data name="speed_limit_302"><value>50</value></Data><Data name="speed_difference_302"><value>-22.373907304801197</value></Data><Data name="speed_303"><value>40.667238493848956</value></Data><Data name="speed_limit_303"><value>50</value></Data><Data name="speed_difference_303"><value>-9.332761506151044</value></Data><Data name="speed_304"><value>41.944700826734774</value></Data><Data name="speed_limit_304"><value>50</value></Data><Data name="speed_difference_304"><value>-8.055299173265226</value></Data><Data name="speed_305"><value>31.124256898823237</value></Data><Data name="speed_limit_305"><value>50</value></Data><Data name="speed_difference_305"><value>-18.875743101176763</value></Data><Data name="speed_306"><value>44.945016887386615</value></Data><Data name="speed_limit_306"><value>50</value></Data><Data name="speed_difference_306"><value>-5.054983112613385</value></Data><Data name="speed_307"><value>49.037358000031844</value></Data><Data name="speed_limit_307"><value>50</value></Data><Data name="speed_difference_307"><value>-0.9626419999681559</value></Data><Data name="speed_308"><value>36.869956468904384</value></Data><Data name="speed_limit_308"><value>50</value></Data><Data name="speed_difference_308"><value>-13.130043531095616</value></Data><Data name="speed_309"><value>9.92942965006344</value></Data><Data name="speed_limit_309"><value>50</value></Data><Data name="speed_difference_309"><value>-40.07057034993656</value></Data><Data name="speed_310"><value>0.0</value></Data><Data name="speed_limit_310"><value>50</value></Data><Data name="speed_difference_310"><value>-50.0</value></Data><Data name="speed_311"><value>2.7163818311057164</value></Data><Data name="speed_limit_311"><value>50</value></Data><Data name="speed_difference_311"><value>-47.283618168894286</value></Data><Data name="speed_312"><value>1.546721109459391</value></Data><Data name="speed_limit_312"><value>50</value></Data><Data name="speed_difference_312"><value>-48.45327889054061</value></Data><Data name="speed_313"><value>0.0</value></Data><Data name="speed_limit_313"><value>50</value></Data><Data name="speed_difference_313"><value>-50.0</value></Data><Data name="speed_314"><value>8.834708863042827</value></Data><Data name="speed_limit_314"><value>50</value></Data><Data name="speed_difference_314"><value>-41.16529113695717</value></Data><Data name="speed_315"><value>2.2753265419262223</value></Data><Data name="speed_limit_315"><value>50</value></Data><Data name="speed_difference_315"><value>-47.72467345807378</value></Data><Data name="speed_316"><value>5.280003814011407</value></Data><Data name="speed_limit_316"><value>50</value></Data><Data name="speed_difference_316"><value>-44.71999618598859</value></Data><Data name="speed_317"><value>9.180233978070989</value></Data><Data name="speed_limit_317"><value>50</value></Data><Data name="speed_difference_317"><value>-40.81976602192901</value></Data><Data name="speed_318"><value>7.274233404928653</value></Data><Data name="speed_limit_318"><value>50</value></Data><Data name="speed_difference_318"><value>-42.72576659507135</value></Data><Data name="speed_319"><value>3.809777171729393</value></Data><Data name="speed_limit_319"><value>50</value></Data><Data name="speed_difference_319"><value>-46.190222828270606</value></Data><Data name="speed_320"><value>6.112554847029102e-11</value></Data><Data name="speed_limit_320"><value>50</value></Data><Data name="speed_difference_320"><value>-49.99999999993887</value></Data><Data name="speed_321"><value>6.112554847029102e-11</value></Data><Data name="speed_limit_321"><value>50</value></Data><Data name="speed_difference_321"><value>-49.99999999993887</value></Data><Data name="speed_322"><value>4.278654558883185</value></Data><Data name="speed_limit_322"><value>50</value></Data><Data name="speed_difference_322"><value>-45.72134544111682</value></Data><Data name="speed_323"><value>9.039495214203562</value></Data><Data name="speed_limit_323"><value>50</value></Data><Data name="speed_difference_323"><value>-40.96050478579644</value></Data><Data name="speed_324"><value>13.890488199394873</value></Data><Data name="speed_limit_324"><value>50</value></Data><Data name="speed_difference_324"><value>-36.10951180060513</value></Data><Data name="speed_325"><value>32.011505281738366</value></Data><Data name="speed_limit_325"><value>50</value></Data><Data name="speed_difference_325"><value>-17.988494718261634</value></Data><Data name="speed_326"><value>0.0</value></Data><Data name="speed_limit_326"><value>50</value></Data><Data name="speed_difference_326"><value>-50.0</value></Data><Data name="speed_327"><value>0.0</value></Data><Data name="speed_limit_327"><value>50</value></Data><Data name="speed_difference_327"><value>-50.0</value></Data><Data name="speed_328"><value>0.0</value></Data><Data name="speed_limit_328"><value>50</value></Data><Data name="speed_difference_328"><value>-50.0</value></Data><Data name="speed_329"><value>0.0</value></Data><Data name="speed_limit_329"><value>50</value></Data><Data name="speed_difference_329"><value>-50.0</value></Data><Data name="speed_330"><value>0.0</value></Data><Data name="speed_limit_330"><value>50</value></Data><Data name="speed_difference_330"><value>-50.0</value></Data><Data name="speed_331"><value>0.0</value></Data><Data name="speed_limit_331"><value>50</value></Data><Data name="speed_difference_331"><value>-50.0</value></Data><Data name="speed_332"><value>25.91124733002591</value></Data><Data name="speed_limit_332"><value>50</value></Data><Data name="speed_difference_332"><value>-24.08875266997409</value></Data><Data name="speed_333"><value>18.276353266991812</value></Data><Data name="speed_limit_333"><value>50</value></Data><Data name="speed_difference_333"><value>-31.723646733008188</value></Data><Data name="speed_334"><value>3.787977974196117</value></Data><Data name="speed_limit_334"><value>50</value></Data><Data name="speed_difference_334"><value>-46.21202202580388</value></Data><Data name="speed_335"><value>11.280303839161562</value></Data><Data name="speed_limit_335"><value>50</value></Data><Data name="speed_difference_335"><value>-38.71969616083844</value></Data><Data name="speed_336"><value>4.079067024544159</value></Data><Data name="speed_limit_336"><value>50</value></Data><Data name="speed_difference_336"><value>-45.92093297545584</value></Data><Data name="speed_337"><value>0.0</value></Data><Data name="speed_limit_337"><value>50</value></Data><Data name="speed_difference_337"><value>-50.0</value></Data><Data name="speed_338"><value>0.0</value></Data><Data name="speed_limit_338"><value>50</value></Data><Data name="speed_difference_338"><value>-50.0</value></Data><Data name="speed_339"><value>9.72016049880942</value></Data><Data name="speed_limit_339"><value>50</value></Data><Data name="speed_difference_339"><value>-40.27983950119058</value></Data><Data name="speed_340"><value>5.2898181082662195</value></Data><Data name="speed_limit_340"><value>50</value></Data><Data name="speed_difference_340"><value>-44.71018189173378</value></Data><Data name="speed_341"><value>5.67932843054385</value></Data><Data name="speed_limit_341"><value>50</value></Data><Data name="speed_difference_341"><value>-44.32067156945615</value></Data><Data name="speed_342"><value>24.476817422394323</value></Data><Data name="speed_limit_342"><value>50</value></Data><Data name="speed_difference_342"><value>-25.523182577605677</value></Data><Data name="speed_343"><value>22.784087745686204</value></Data><Data name="speed_limit_343"><value>50</value></Data><Data name="speed_difference_343"><value>-27.215912254313796</value></Data><Data name="speed_344"><value>7.4568957708597825</value></Data><Data name="speed_limit_344"><value>50</value></Data><Data name="speed_difference_344"><value>-42.54310422914022</value></Data><Data name="speed_345"><value>47.919329894624994</value></Data><Data name="speed_limit_345"><value>50</value></Data><Data name="speed_difference_345"><value>-2.080670105375006</value></Data><Data name="speed_346"><value>0.0</value></Data><Data name="speed_limit_346"><value>50</value></Data><Data name="speed_difference_346"><value>-50.0</value></Data><Data name="speed_347"><value>0.0</value></Data><Data name="speed_limit_347"><value>50</value></Data><Data name="speed_difference_347"><value>-50.0</value></Data><Data name="speed_348"><value>0.0</value></Data><Data name="speed_limit_348"><value>50</value></Data><Data name="speed_difference_348"><value>-50.0</value></Data><Data name="speed_349"><value>0.0</value></Data><Data name="speed_limit_349"><value>50</value></Data><Data name="speed_difference_349"><value>-50.0</value></Data><Data name="speed_350"><value>0.0</value></Data><Data name="speed_limit_350"><value>50</value></Data><Data name="speed_difference_350"><value>-50.0</value></Data><Data name="speed_351"><value>0.0</value></Data><Data name="speed_limit_351"><value>50</value></Data><Data name="speed_difference_351"><value>-50.0</value></Data><Data name="speed_352"><value>35.53159291957737</value></Data><Data name="speed_limit_352"><value>50</value></Data><Data name="speed_difference_352"><value>-14.46840708042263</value></Data><Data name="speed_353"><value>4.66622487721536</value></Data><Data name="speed_limit_353"><value>50</value></Data><Data name="speed_difference_353"><value>-45.333775122784644</value></Data><Data name="speed_354"><value>27.98292884258358</value></Data><Data name="speed_limit_354"><value>50</value></Data><Data name="speed_difference_354"><value>-22.01707115741642</value></Data><Data name="speed_355"><value>3.2552709737905214</value></Data><Data name="speed_limit_355"><value>50</value></Data><Data name="speed_difference_355"><value>-46.74472902620948</value></Data><Data name="speed_356"><value>2.8316930252154813</value></Data><Data name="speed_limit_356"><value>50</value></Data><Data name="speed_difference_356"><value>-47.16830697478452</value></Data><Data name="speed_357"><value>3.923948937822382</value></Data><Data name="speed_limit_357"><value>50</value></Data><Data name="speed_difference_357"><value>-46.07605106217762</value></Data><Data name="speed_358"><value>18.50652082224464</value></Data><Data name="speed_limit_358"><value>50</value></Data><Data name="speed_difference_358"><value>-31.49347917775536</value></Data><Data name="speed_359"><value>7.013293249124103</value></Data><Data name="speed_limit_359"><value>50</value></Data><Data name="speed_difference_359"><value>-42.986706750875896</value></Data><Data name="speed_360"><value>7.639396541278</value></Data><Data name="speed_limit_360"><value>50</value></Data><Data name="speed_difference_360"><value>-42.360603458722</value></Data><Data name="speed_361"><value>22.08375153407392</value></Data><Data name="speed_limit_361"><value>50</value></Data><Data name="speed_difference_361"><value>-27.91624846592608</value></Data><Data name="speed_362"><value>50.83636379688239</value></Data><Data name="speed_limit_362"><value>50</value></Data><Data name="speed_difference_362"><value>0.836363796882388</value></Data><Data name="speed_363"><value>47.81691696689146</value></Data><Data name="speed_limit_363"><value>50</value></Data><Data name="speed_difference_363"><value>-2.183083033108538</value></Data><Data name="speed_364"><value>25.380660281452457</value></Data><Data name="speed_limit_364"><value>50</value></Data><Data name="speed_difference_364"><value>-24.619339718547543</value></Data><Data name="speed_365"><value>30.39704225004972</value></Data><Data name="speed_limit_365"><value>50</value></Data><Data name="speed_difference_365"><value>-19.60295774995028</value></Data><Data name="speed_366"><value>18.223026531034602</value></Data><Data name="speed_limit_366"><value>50</value></Data><Data name="speed_difference_366"><value>-31.776973468965398</value></Data><Data name="speed_367"><value>46.95947780766718</value></Data><Data name="speed_limit_367"><value>50</value></Data><Data name="speed_difference_367"><value>-3.0405221923328227</value></Data><Data name="speed_368"><value>0.0</value></Data><Data name="speed_limit_368"><value>50</value></Data><Data name="speed_difference_368"><value>-50.0</value></Data><Data name="speed_369"><value>0.0</value></Data><Data name="speed_limit_369"><value>50</value></Data><Data name="speed_difference_369"><value>-50.0</value></Data><Data name="speed_370"><value>30.012732231143435</value></Data><Data name="speed_limit_370"><value>90</value></Data><Data name="speed_difference_370"><value>-59.98726776885657</value></Data><Data name="speed_371"><value>30.885753531390993</value></Data><Data name="speed_limit_371"><value>90</value></Data><Data name="speed_difference_371"><value>-59.11424646860901</value></Data><Data name="speed_372"><value>51.28327402650123</value></Data><Data name="speed_limit_372"><value>90</value></Data><Data name="speed_difference_372"><value>-38.71672597349877</value></Data><Data name="speed_373"><value>61.007499644991704</value></Data><Data name="speed_limit_373"><value>90</value></Data><Data name="speed_difference_373"><value>-28.992500355008296</value></Data><Data name="speed_374"><value>64.87352822144926</value></Data><Data name="speed_limit_374"><value>90</value></Data><Data name="speed_difference_374"><value>-25.126471778550737</value></Data><Data name="speed_375"><value>58.78851591681114</value></Data><Data name="speed_limit_375"><value>90</value></Data><Data name="speed_difference_375"><value>-31.211484083188857</value></Data><Data name="speed_376"><value>36.602868700381414</value></Data><Data name="speed_limit_376"><value>90</value></Data><Data name="speed_difference_376"><value>-53.397131299618586</value></Data></ExtendedData></Placemark></Document></kml>